{"type":"FeatureCollection","features":[{"type":"Feature","properties":{"nivell":"ADM_01_PL","nom":"Barcelona","districte":"-","codi_ua":"080193"},"geometry":{"type":"MultiPolygon","coordinates":[[[[2.1870605004908197,41.46771682009473],[2.185381980770834,41.46779509718891],[2.1845831206052724,41.46819672849156],[2.1837853928680104,41.46829647686976],[2.1806928458263233,41.46767315548651],[2.179413336502136,41.46759399944476],[2.1786948515395452,41.46818418429087],[2.1786097366593604,41.46742052365612],[2.178935621790762,41.46653473063653],[2.179844279359639,41.46550557020932],[2.1807119110858197,41.46494026119684],[2.1762511898660057,41.46399006289045],[2.175730368113858,41.463733034976656],[2.174915948904621,41.463852216884106],[2.174878012445839,41.463699280236824],[2.174352084850964,41.463484012776924],[2.1743545182600754,41.46297171664124],[2.174169339107269,41.46263722176102],[2.1737604486352735,41.4625352374071],[2.172646185253229,41.461868853377375],[2.1714050719862787,41.46082198211575],[2.1712235106233257,41.46121342636491],[2.168318160487477,41.46028489561023],[2.1682628683408596,41.460697227382],[2.167325374422759,41.46068025112695],[2.1672418309075923,41.46047226903414],[2.167524534739251,41.459931205299995],[2.1671663514029085,41.459799986880576],[2.166934390199429,41.459492311459684],[2.166921392199476,41.45917452546723],[2.1661622458596264,41.45846539484442],[2.165740755834424,41.458372956492454],[2.1642287929044137,41.45604454319058],[2.164168684893666,41.45579380872813],[2.1644065906833845,41.455115588030985],[2.1649238573114644,41.45477051546459],[2.164801262953158,41.4526752123687],[2.1653326802252093,41.45224912429254],[2.1655978814504633,41.451579755741086],[2.164756705697217,41.451060888939324],[2.164358822487733,41.450569133721565],[2.1641058141438867,41.449798241754806],[2.1627865123399497,41.449789259035505],[2.1618604604647365,41.45025837795474],[2.160211348268583,41.450332729847375],[2.159559860989663,41.45052120424765],[2.158967185458874,41.4505173517775],[2.1580136518776754,41.44982867658467],[2.157445115533247,41.449591967645915],[2.1565793146510335,41.449913744831214],[2.1558422550670566,41.44993475259391],[2.1544076407571864,41.44940989277518],[2.1535584009871536,41.448798349011604],[2.153268636304201,41.447789187852976],[2.1527573881699236,41.44760977902785],[2.152028559791024,41.44703964400423],[2.150750196592038,41.44730043588731],[2.1495301010977554,41.44722386637253],[2.1484851338175086,41.446754956472525],[2.1475823647152565,41.446947334216745],[2.146615494826617,41.44755447100518],[2.145098253252791,41.447953042455985],[2.1435056569300306,41.44761692891799],[2.142348007013053,41.44698048723381],[2.142032513550216,41.44693850199506],[2.141652402853334,41.44698520712142],[2.140816718876284,41.44744465157782],[2.137812269421981,41.44795631156685],[2.1371068373805584,41.447617748038425],[2.136628696528522,41.447743867083496],[2.135737350214011,41.447432723363214],[2.134731231098775,41.44756117173372],[2.134584246190946,41.44709078009248],[2.1338404469554018,41.44603852109453],[2.132907632571037,41.445427997177596],[2.132782124436145,41.44460467446486],[2.132112703557145,41.44417357537632],[2.1307190982228104,41.44382887787344],[2.129943722258215,41.44302986292983],[2.1299447749440983,41.442473603662435],[2.1295000897038983,41.44191266525868],[2.129955656076868,41.44108619096777],[2.129928019790072,41.44066977535986],[2.1293508821208365,41.440084571813],[2.1294735032766763,41.43872993556197],[2.129237046971633,41.437663041061896],[2.128613698729233,41.43678992185037],[2.1287998064463616,41.43620778733276],[2.128844176891933,41.43517789382595],[2.128331298522326,41.43406019564127],[2.128301032798776,41.43352179148171],[2.1275367417556597,41.43313992767353],[2.1272660306693716,41.43263172260849],[2.1265210850528993,41.43184679925045],[2.126423594327063,41.431675212374685],[2.126527163234339,41.43160954197229],[2.1241096432671123,41.42961397431461],[2.122657762633438,41.428761578181884],[2.1230819827733947,41.42869355389567],[2.1219965110830903,41.42652839504819],[2.1212682488297596,41.42583079969478],[2.1208881366170096,41.42594610028005],[2.1195592959552183,41.42573999047585],[2.11710539170154,41.426268618498455],[2.116322286475369,41.42666172086861],[2.1154609802753734,41.426876710735286],[2.1154165885339933,41.42749439550462],[2.115083053826644,41.42781747431801],[2.1133236170967207,41.42850357037048],[2.112939524637977,41.42836020877123],[2.112336954401961,41.42861300681422],[2.1118641523878403,41.42835033196774],[2.11101459323649,41.42828377800689],[2.110148838394828,41.428475945309586],[2.1097126844857526,41.4284165464386],[2.10900572598255,41.42875112984559],[2.106679021251473,41.42863282901094],[2.106341002205441,41.4285033125087],[2.1058536896350644,41.42856391919875],[2.1057453339055625,41.42878355268076],[2.105306097934873,41.428839471272006],[2.1035947676834135,41.42810962025682],[2.103220444315637,41.42807402940126],[2.1021103611069756,41.42868560144307],[2.101145601089462,41.429787913895325],[2.099899535669481,41.43011078302215],[2.0991455052256884,41.43012209500787],[2.0987248837433543,41.4308896016725],[2.0989407653734458,41.431698652276175],[2.0970850071672245,41.43250143081353],[2.0960693258390837,41.43327240709323],[2.0954888799684075,41.432853815197575],[2.0947127813364284,41.43275890992383],[2.0940721904601225,41.43210985834536],[2.0936003276405524,41.4312685857463],[2.092497337271845,41.43016497687428],[2.0922880276535207,41.429612614494744],[2.09111685319776,41.42917730666527],[2.090834554290005,41.42881271913241],[2.0904259731991366,41.42864378167843],[2.0900333433959903,41.42893915566572],[2.0892057464735982,41.42921383713602],[2.0889765135840794,41.429144442973715],[2.0887898801904865,41.42862154771894],[2.0861573488940803,41.4289149243232],[2.0855760058457253,41.429070319950306],[2.0853689065030214,41.42931572823783],[2.0838904902531765,41.42997299616809],[2.0837042172465465,41.43016453714554],[2.083853320878691,41.43041764322335],[2.083418302146454,41.43085275373587],[2.0826106406841194,41.43078458537491],[2.082451075987123,41.43113849508426],[2.0825824522350413,41.43148139501482],[2.0823176055938744,41.43162932456092],[2.0814370494327252,41.431576428500755],[2.0811077806553087,41.431201258510214],[2.081245576331674,41.43073096404314],[2.080769567128753,41.43063882846038],[2.0801518065512297,41.43087979758195],[2.080259728913032,41.43155946111296],[2.07996980524496,41.43189036223508],[2.0781647070660734,41.43203493687021],[2.0767141715318687,41.432849990288474],[2.075293679524088,41.432962432850665],[2.074845098946959,41.43344413471377],[2.0750659688556286,41.43387059123413],[2.075131271535443,41.43450373455602],[2.0747722894459595,41.4353017920744],[2.073948870489664,41.435348033742045],[2.0731873112533736,41.435211622093995],[2.0728320708758154,41.4354586916649],[2.072518991838643,41.43548795237237],[2.0733402124178033,41.436448466447224],[2.07302786503921,41.43660692943364],[2.0717678299748683,41.4363023666755],[2.0711806988778996,41.435300874441374],[2.070982182772136,41.4347398898638],[2.0709978733265233,41.43419326692083],[2.0714754601898884,41.43307795390491],[2.073121779770432,41.43066516016019],[2.074532093868298,41.429894516668405],[2.0754779164226766,41.42955166284466],[2.076617187165879,41.42870915611673],[2.073818176107817,41.427931929650626],[2.072991509623853,41.42752326574749],[2.073228062696298,41.42741555135132],[2.072949821778009,41.42628911234375],[2.0725436858566537,41.42578278609831],[2.07277405001882,41.425494200502584],[2.0727046894902412,41.4251528420224],[2.0731875170029372,41.42494418012416],[2.0745403679477703,41.42477998558472],[2.0751587543063907,41.424995905139454],[2.078118204901181,41.42494176743035],[2.079679308232433,41.424468984197176],[2.080543526088561,41.424579396090046],[2.0809615834379893,41.42400438588983],[2.0803608006152325,41.42398673853602],[2.080069081902749,41.42306486318012],[2.077908058310734,41.422478387836726],[2.076060799091287,41.422308136736206],[2.0753403616474184,41.421977303813776],[2.0769529491750887,41.421023050993355],[2.0770323551495258,41.4208056911332],[2.076831194527122,41.41953265383823],[2.0775153151466905,41.41902618142648],[2.0776499308530254,41.41859751697389],[2.0787576653809716,41.41886398984781],[2.0786036657106894,41.41857333871166],[2.078768725236051,41.41839569721826],[2.078647628011955,41.418004002953865],[2.0790319580271164,41.417601169119365],[2.0792829594717994,41.41674710773432],[2.0798092689861405,41.416245858041094],[2.0797444134574574,41.41565924234961],[2.0794574610811876,41.41556812704179],[2.079044098597699,41.41513301119058],[2.0790669913831854,41.414935541482436],[2.078585185313602,41.414978809773466],[2.0773392201286462,41.41462777099232],[2.077310387454353,41.41444147306325],[2.0763043806374903,41.413550392076004],[2.076047427899224,41.412727867918264],[2.0755452641425496,41.41239106302815],[2.07454097298608,41.41220154297924],[2.0741340652202873,41.41188475603641],[2.073439562978504,41.411860798752464],[2.07306095526877,41.41142565292909],[2.072136950447407,41.410954523990746],[2.071350529615163,41.40880665426741],[2.072061874707122,41.40754458909657],[2.0715235008084134,41.40718650870043],[2.0703168247942636,41.40722995614047],[2.069999593456689,41.40702777011504],[2.0705021574848006,41.4060407686408],[2.072058257597332,41.404094089706774],[2.072192279320764,41.40346419111331],[2.0727924461250713,41.40315750287988],[2.0737515633011774,41.40329620480407],[2.074893613184993,41.4029089795669],[2.0758508565527074,41.40320692509406],[2.077774824013851,41.40286731858304],[2.07859255179082,41.403120666464545],[2.0801196805437736,41.40454743000856],[2.080422249605078,41.40596346617746],[2.0809753093868135,41.40639036188335],[2.0824516859667255,41.40708069409309],[2.0827915165447233,41.40776251346255],[2.0835425866023742,41.408279124783775],[2.083637888251021,41.40854256819315],[2.0841352737698697,41.40893834741073],[2.084133392745206,41.40935483876181],[2.085455742343825,41.409713894709846],[2.0868241031100965,41.4094926074444],[2.087486569151512,41.40897554489526],[2.0886694680310707,41.40860996213372],[2.0915347265373283,41.40820704887012],[2.0926641542551216,41.408269597203656],[2.0943598167611226,41.40793131153937],[2.095652498707716,41.40784978557416],[2.0962241978257343,41.40796673777769],[2.096655097344765,41.40824060853928],[2.0970795679522016,41.408931262545636],[2.0974462122332023,41.40912345895475],[2.0986570996329013,41.40895010845363],[2.1006071968667617,41.40836817143338],[2.1016018457154644,41.40699569725356],[2.101787271033514,41.40515536963037],[2.10286498283073,41.4048160621546],[2.103590406911863,41.40440311159486],[2.1037866964993492,41.404022820639135],[2.1038254999347443,41.40328868839025],[2.103152933871354,41.40205038319459],[2.103175649828645,41.401651433050496],[2.1028326676081304,41.40052027275166],[2.1016810363486647,41.39915045724072],[2.100495581593998,41.398551450275114],[2.100444565901855,41.39800294311919],[2.1001470407335554,41.39756359830736],[2.0999251304492113,41.39681249475899],[2.0993870831389523,41.39627164973997],[2.0990208974765276,41.39541238087623],[2.0985088542412407,41.394982659666645],[2.0977918066151755,41.393957105534575],[2.0980512925428196,41.39342872373192],[2.09912769277184,41.39281138800415],[2.099796018065564,41.392004543887104],[2.0998558157975267,41.390789676178194],[2.100248772874643,41.38968684672697],[2.100256875351445,41.38909877528631],[2.100589862498846,41.388409884661755],[2.102290769445304,41.38751810503523],[2.1011144053769066,41.38708145899995],[2.1022626171613377,41.38611790065005],[2.1026858640018,41.38555236723919],[2.1028932291947857,41.385487474645835],[2.1033935967556774,41.38455324784985],[2.103434853064911,41.38436751681594],[2.1027328455381924,41.3836273663975],[2.1011815427953278,41.38317565805676],[2.1019316664389835,41.381343030831964],[2.1026558336326913,41.38059632102627],[2.103861600136803,41.380065175942335],[2.1054989690762835,41.37887675750729],[2.1059825761038216,41.379233787520775],[2.1081409293489664,41.37813558773053],[2.1090649829907777,41.37703791414422],[2.1093064027190813,41.3759448645919],[2.1178012231608507,41.37577564722644],[2.121441225425024,41.37798561756814],[2.121653346731151,41.37726070643557],[2.1216185767178035,41.376111858902],[2.1218405878899147,41.3755761966805],[2.1232407922626093,41.37485036997273],[2.1237608046043195,41.3743412673605],[2.1242669613882494,41.373540361940094],[2.1273006403078436,41.371626072983695],[2.129230116541338,41.37072613542017],[2.130415210873595,41.36973469082465],[2.131630762992196,41.36797219762758],[2.132030514586363,41.366777987646444],[2.132885416559828,41.365538415475896],[2.1336562765085922,41.363614568022705],[2.1354300573727505,41.36225650885451],[2.1346843209063566,41.36114892403735],[2.1329665820039727,41.35985283811948],[2.133309796363733,41.3593806476792],[2.1328523842080296,41.35919153115845],[2.1333651373150055,41.35848447523393],[2.1332159979983576,41.35842656122751],[2.1331935575420933,41.3574165689823],[2.1329700694632603,41.35649682638096],[2.133187915357862,41.35617743669705],[2.132069555586898,41.35574351970146],[2.133899830052537,41.35305960998786],[2.1337709610177935,41.353005059518445],[2.1350421606166132,41.35130105185507],[2.137422079749524,41.34877355008669],[2.1367861353118913,41.34836475304121],[2.1280919377428553,41.345298047959396],[2.1005265211836655,41.33604204929427],[2.1022496981790546,41.33535067512302],[2.104128390590984,41.33433540328821],[2.107653708463091,41.33174499957192],[2.1087488306331155,41.33072957950764],[2.1123024432558197,41.32611668950245],[2.115652673703105,41.323889877788915],[2.1189007872058565,41.32273402442494],[2.1217450136879097,41.32206619093088],[2.128518992188571,41.32096137946963],[2.1307118194009935,41.32077179342479],[2.1397687689196108,41.32111535951686],[2.1457415277124245,41.32075092388733],[2.149857305664407,41.32068287899853],[2.150815766804021,41.321674096747],[2.1517269274872155,41.323153669868866],[2.1522652051981717,41.32296421821482],[2.15235099913006,41.32307581206635],[2.153962680010597,41.327665170999914],[2.1542206496251235,41.32755693111341],[2.1540398701668706,41.32726919691315],[2.1542130185377557,41.32721377563102],[2.1544950855998253,41.32746619627539],[2.1542995150835633,41.3278601569043],[2.1588452185116886,41.32783479317205],[2.1589710861323845,41.32776307572264],[2.158722511985344,41.32728082973556],[2.158898603292777,41.327139364299164],[2.1591488268853403,41.327180177539965],[2.1597320469486228,41.32823759641195],[2.1639138301967207,41.337971569108426],[2.1650997126252873,41.33787639269829],[2.165023489174626,41.33761321456271],[2.1651784301042634,41.337587730156216],[2.165388662412277,41.33831363590737],[2.1652351569932575,41.33833888779762],[2.165154614058471,41.3380732103588],[2.164075222993955,41.338322073602534],[2.16493663778392,41.34024514974267],[2.1656005159503717,41.34015729485873],[2.165729358151687,41.34061329191927],[2.165634740217518,41.34062875658593],[2.165528491023482,41.340253018655815],[2.1651782145250626,41.340340220887484],[2.1652883462023884,41.340591475500766],[2.165114377504216,41.34067256991171],[2.1653204065666607,41.34113582894143],[2.166115181558422,41.34106566547794],[2.166239950640029,41.34125013492671],[2.1636136964078423,41.34167227001787],[2.163660764034287,41.34184975511084],[2.163945310839081,41.341843139264654],[2.1642408444392878,41.34222704499447],[2.1625293031499053,41.34250141331626],[2.1624954068179196,41.342381978389305],[2.162644696280052,41.34235916759566],[2.1625931480747416,41.342073531549715],[2.1628363576663503,41.34200590658267],[2.1627612533613427,41.34180034775532],[2.1610485426170842,41.342084278644755],[2.1611789122032388,41.342592292464666],[2.1594796083893018,41.343251724355575],[2.159207260729294,41.34324608689754],[2.158250020722019,41.34258561696752],[2.157870990427534,41.34258918541904],[2.157080949421031,41.34223361049563],[2.1570880784138353,41.34240558130197],[2.1568491009785666,41.34229372213676],[2.156960871661469,41.342177496500355],[2.1562483944424664,41.341838886802336],[2.1555498580429684,41.340814006609726],[2.1548176443864655,41.339505856590264],[2.1543814592927237,41.339034159275776],[2.1543989039722415,41.338831256592506],[2.1537864935025137,41.337820905777576],[2.153606566547524,41.33779119979517],[2.1536663372568703,41.337626755563754],[2.1529326354068594,41.336431672268105],[2.1527548112877635,41.336401412955276],[2.1527998845118907,41.33622024194617],[2.1522202835814097,41.33526124201256],[2.1518791711064686,41.3349633250282],[2.151934343118411,41.33480158603829],[2.1512884945476545,41.33376201560778],[2.151065948291725,41.33365893983134],[2.1511152049636038,41.33348712311462],[2.1503047340339823,41.33241494120687],[2.150339833445775,41.332233697412065],[2.1495526105531813,41.33120831396183],[2.1495152472823773,41.330911147673355],[2.148933285168147,41.33001041021349],[2.1486805139009446,41.330018091533695],[2.1459016580950716,41.33098771398503],[2.146085358783186,41.33128586815645],[2.1458488124339063,41.33137118023295],[2.147280375768714,41.33369746635241],[2.1442792594960918,41.33474740038535],[2.1453142900292304,41.33642677265327],[2.1456278400682796,41.33632445966728],[2.145612559155716,41.336550626580475],[2.1495676741440217,41.33667561588508],[2.150924281396863,41.34648342397414],[2.1518697171727443,41.346408012174514],[2.151809666338334,41.34571993182681],[2.151957489652441,41.34640145293903],[2.1527405849735426,41.34634020450668],[2.152642417124738,41.34562831616858],[2.153007398240952,41.345599728631086],[2.1528539263651107,41.34449290173855],[2.1532176731450337,41.34446314245181],[2.153005955351783,41.34294312392678],[2.1531132610005903,41.342734865836675],[2.1533082821995158,41.342701135209445],[2.1632392086445695,41.348369254912],[2.1630412017494756,41.348451315210006],[2.1633778165605757,41.348641237307326],[2.1636963616989324,41.34852089654095],[2.16356276009389,41.348395621146224],[2.16690655269615,41.34714391718982],[2.1730512904465376,41.3565026975339],[2.1699005290633946,41.358647393539215],[2.170930877367584,41.36025131907194],[2.1754475177814303,41.35863075872435],[2.1767390101820574,41.36055284597387],[2.1736911685798237,41.361645713931466],[2.173843980287041,41.361879890478974],[2.1734800700888215,41.362035420193806],[2.1759830835649447,41.36532411580934],[2.1792795048335396,41.364120169620314],[2.1789928772580613,41.3636778630599],[2.179313673854453,41.36355987261594],[2.180752341804742,41.36579561061721],[2.1798266696101054,41.36622069444598],[2.17967546695627,41.365978808046336],[2.1765197827501255,41.36713181761731],[2.1766888815301186,41.36739790339298],[2.176392694644426,41.36742280653869],[2.176682224444898,41.36938573460497],[2.177039177895173,41.36935660393462],[2.177108837027274,41.36982090031387],[2.176751736162065,41.36984995357408],[2.1770896100766692,41.37214360861374],[2.1773759440519598,41.372119416958185],[2.1776185227209166,41.37236196101146],[2.1820972156361704,41.37039458372609],[2.18300281538113,41.371595560727926],[2.178123775998883,41.3738183933581],[2.1782708362065923,41.374006512073265],[2.1779762518038313,41.374138296022316],[2.1823047299535885,41.3795517383983],[2.182509559878655,41.3794595515321],[2.1832536150934967,41.377550014916245],[2.1815056249688443,41.375354718698134],[2.1816533122076316,41.37488804396377],[2.183057480384719,41.37433892378882],[2.1849929284292546,41.37674659550363],[2.1835504847874265,41.3804535713819],[2.1846570906996283,41.38070524254072],[2.1859170098568264,41.38010997524159],[2.186029109756758,41.37955464177674],[2.186446074200913,41.379649293477215],[2.187263552146068,41.377598657769056],[2.1864364775234075,41.37741081600539],[2.1871973760769556,41.37722674500387],[2.1868946958408606,41.37600964729067],[2.186601951863004,41.37604994616908],[2.1868802157235243,41.37595315961706],[2.186926824744935,41.37562478065894],[2.1853067448329204,41.374975516535514],[2.1847299599610803,41.37502834108339],[2.185270720221565,41.37492245481015],[2.185207846699057,41.37453116821845],[2.184535244510806,41.37458400688004],[2.185197886530443,41.37447551219632],[2.1851369816180632,41.37408282979799],[2.1844697388128225,41.37416841240118],[2.185128615679577,41.374026878799036],[2.185066328762149,41.37363768147226],[2.184446651743574,41.37376313488154],[2.185057960533679,41.373580964807395],[2.185003548377545,41.373232510230295],[2.1843921932037764,41.37335929236469],[2.184987237373853,41.37313482507023],[2.184929824663045,41.37278923159323],[2.184264171626288,41.372986932112696],[2.1849323881738947,41.37267391724438],[2.1842335312548045,41.372950900934995],[2.184892131709739,41.37264569071495],[2.1856231683036498,41.37262218667275],[2.1859342974579588,41.37453187806271],[2.18666052863897,41.37481515714004],[2.1874892136621784,41.374556990686635],[2.1868018550150055,41.37355998308457],[2.187092014367133,41.37378774409414],[2.186818596502205,41.37328728112242],[2.187545548494554,41.37315626708999],[2.1874032096722407,41.37227834217908],[2.185920352429567,41.372404784807394],[2.185796538294053,41.37169252945164],[2.186164286370137,41.371653984457915],[2.185791957507974,41.37161685172623],[2.185767591172263,41.37120903410952],[2.187213653434656,41.37110265269179],[2.1871429182460886,41.370643713364224],[2.184612225721763,41.37084520845566],[2.1845787812767297,41.37047553621024],[2.184964302403493,41.3704160343191],[2.18462434878575,41.36860547001614],[2.185192493283294,41.36848160519698],[2.185146885310997,41.36810434355137],[2.185953533651877,41.36802721931822],[2.1859880172187727,41.36831694771997],[2.1858605373395306,41.368447853273885],[2.186173601084374,41.37012564187037],[2.187201811010347,41.37000691154761],[2.186680796593625,41.36691232748015],[2.1853637868741935,41.3653584514418],[2.1851333189209075,41.365687180537286],[2.1849343218029804,41.36563097831849],[2.184935948974995,41.36525628483615],[2.1851316973487904,41.36529611804985],[2.1853128377052538,41.36475085223254],[2.185607868133865,41.36474947083673],[2.1859730004292173,41.364224659536475],[2.1866485639919406,41.36404526348013],[2.1867779912802745,41.364178777450185],[2.1861548504919743,41.3644074830404],[2.1858707535381936,41.36488479404166],[2.1868396059730215,41.36567301770344],[2.1874598996657455,41.36675731776417],[2.187895773313816,41.36723062371028],[2.1893011978528314,41.36669758556372],[2.187414349146075,41.36357534856215],[2.1866888189665543,41.36328763638155],[2.1871627452661127,41.36307858862662],[2.186646645418721,41.36162423947289],[2.1852807450718377,41.35811260126087],[2.1851222181207532,41.35814529321536],[2.1850367742691748,41.35797759791835],[2.1846615508498486,41.35805989936532],[2.1845987618005176,41.357902858058274],[2.1853606024498453,41.35773416449548],[2.1868487523721702,41.36158852871526],[2.1870873252940943,41.361539770145804],[2.1875053812887546,41.36279420781961],[2.187729356430968,41.363083373117014],[2.187759119804799,41.36347113314846],[2.1918774089162407,41.36985701928771],[2.1915698643265977,41.37003722221059],[2.191111974849352,41.369394829166204],[2.1903474886866556,41.36951536025811],[2.1898461368827387,41.36992847558546],[2.1894913916927266,41.37068911450854],[2.189685887558777,41.372410420058344],[2.1908627487823638,41.37519144642373],[2.1912979579024516,41.37583646383757],[2.191949977856195,41.37645491676641],[2.192769079521662,41.37684164842003],[2.1934423873385396,41.37691793465104],[2.192868476328608,41.37763602637505],[2.1928715443817652,41.378403489565976],[2.193417487684257,41.379583683082444],[2.1945047605258274,41.380709034487914],[2.1949789894233054,41.380969401009715],[2.196531241616226,41.38040990160279],[2.1966355055167788,41.3802522330893],[2.1969276774834476,41.38029728350854],[2.1968258442203457,41.380573347094675],[2.1966481460731897,41.380519202708136],[2.19535186805582,41.38098667424167],[2.1956805141781235,41.38152153297059],[2.197024386722859,41.380954913495614],[2.1973170800568766,41.3811085883451],[2.195461989448596,41.381744227836215],[2.195568522495188,41.38252142227625],[2.195934117363412,41.38319419144966],[2.196559592565732,41.38382548412572],[2.197223644236037,41.38421324488551],[2.1981940245814933,41.38447985982014],[2.1983151913906815,41.38434101540596],[2.1982299433711256,41.38470306430746],[2.198604051236518,41.38499733402761],[2.1990833880543152,41.38463772233571],[2.1999861022327103,41.3851923981303],[2.1997622074112946,41.3853241615821],[2.1998366521138895,41.385383291238014],[2.1995884193026063,41.38570116064285],[2.1994221298381285,41.38557979841652],[2.1992879083348718,41.385679559563776],[2.1994890112474095,41.385832357230555],[2.198313281405165,41.386718429260895],[2.198430236446138,41.386808499566776],[2.198312473018876,41.38689523222604],[2.200220732436981,41.38833241128426],[2.200457477288061,41.38833286759542],[2.2019635077670645,41.387197584246735],[2.2001965486732282,41.38586811014175],[2.200835745496363,41.385385244397725],[2.2011248787476108,41.385599559444884],[2.200985383364732,41.38570436620416],[2.2011741537738185,41.38563873296722],[2.2014092008296733,41.385815263558925],[2.201203831099696,41.3859726046204],[2.2023972401280703,41.38687140636803],[2.202603357047955,41.38671546274249],[2.202515189482165,41.386648230286085],[2.2027452718305542,41.38660809284954],[2.2017962204275006,41.38550643280151],[2.2007495717215573,41.38458151711196],[2.2000337577371356,41.38410583667117],[2.1998959703337646,41.38415143855175],[2.198858885911783,41.38362635301951],[2.1994028492050575,41.38336266959184],[2.199776455101471,41.383352468722194],[2.200543803027859,41.383734668470716],[2.2006694426991746,41.383857620299715],[2.2005286545818246,41.383984242793765],[2.1997790529595282,41.38359905877527],[2.1995016044903677,41.38359059849313],[2.200511591256208,41.38408354929059],[2.2016581304005407,41.384984110375],[2.202783868881094,41.38617329699516],[2.203620655175951,41.38741658076773],[2.203054550312276,41.387839793350935],[2.2033898790166457,41.38815907645361],[2.2028330758287487,41.387653618557415],[2.2014917633695634,41.38865399336674],[2.2020748877310976,41.389795395198796],[2.2029959640131174,41.3904978346123],[2.204420771267159,41.391080644957206],[2.204746852070966,41.39111146824785],[2.2057591937166854,41.39039198012078],[2.205890540290086,41.3904911046371],[2.204567393037692,41.391493057945354],[2.2048225214779404,41.39168338196558],[2.206142048865497,41.39067871023609],[2.206270969505571,41.39077480006057],[2.205729232969947,41.39118483999273],[2.205509854032448,41.39154813876571],[2.2070300138317207,41.393618238045086],[2.2082025727094967,41.394794929407226],[2.2089036197060747,41.395247118524004],[2.21006507837618,41.39564577731454],[2.211317653447973,41.39474173257138],[2.211448315034719,41.39483857611529],[2.2109115694343724,41.39524527853644],[2.2111272481200013,41.39540719021567],[2.2117178688912236,41.395038228070824],[2.211848769369906,41.39513420807304],[2.2107353004666788,41.39602698153247],[2.2111123510735506,41.39677668877099],[2.212118561843056,41.39795402771068],[2.2136356365267216,41.399138597407784],[2.214398893379491,41.39935212786633],[2.2151499233702423,41.39874386922422],[2.2155877600181797,41.39859527668074],[2.2153370415454656,41.398856361125794],[2.215673431645037,41.398796638016556],[2.2156393535072736,41.39898439235139],[2.214561964847634,41.39974396869021],[2.2152950020341606,41.40104937458029],[2.216147893747117,41.401950506841104],[2.2173407831459366,41.40259281854021],[2.2189432421621476,41.40150906220054],[2.2171511954023515,41.40293978571745],[2.2175648771540226,41.40352924007905],[2.218493954561245,41.40438265562533],[2.2203072771453587,41.40515302097696],[2.222153028627055,41.403876224906526],[2.2219503041937125,41.403547413567566],[2.2221519451830716,41.40352468188292],[2.2224620287736476,41.403804962725914],[2.223387127360376,41.40528720017686],[2.2228614602750247,41.40497997201704],[2.2221746213745437,41.404077588513424],[2.2209714535791067,41.405140237245426],[2.2215209492876284,41.405533607301834],[2.2218174116811564,41.40531533536604],[2.2217658888035805,41.40511235421657],[2.2219233084630767,41.405075254118124],[2.2222691512898702,41.40534307846841],[2.2226800187646134,41.405393442532635],[2.2234333322862097,41.40617938396695],[2.223935316260051,41.406320266830924],[2.2243276813456094,41.40616695691432],[2.224686070838305,41.40647021388853],[2.2251108618202995,41.40632007155989],[2.2255001901027183,41.405955297899744],[2.225717290586948,41.40596718078199],[2.2258064229761403,41.40612332203732],[2.2256914230601477,41.4063290630462],[2.224778884040018,41.406937052862034],[2.225024054609891,41.40733552431623],[2.225655384449082,41.406733374196016],[2.2260947599428724,41.4066219802651],[2.2262076690493355,41.406818265399586],[2.2260360580466965,41.40694106327594],[2.2261097251499207,41.407254290046275],[2.226228142499882,41.40735941940818],[2.2264752904129295,41.407095991569925],[2.226487105471301,41.407691592552645],[2.226741036288344,41.407876160595805],[2.2268065647921778,41.407628930899016],[2.226926341793731,41.40762769106017],[2.227021303457914,41.40788901499494],[2.2269166958514077,41.40811438225687],[2.2274250302760694,41.408093773773174],[2.2280024363176274,41.40898665313957],[2.2279391812521223,41.40954336014121],[2.2277118299499254,41.40961404736327],[2.227243768198526,41.40894813328943],[2.226980120886801,41.40841095680184],[2.2270525686983893,41.40827531417763],[2.226440746021723,41.40776706092413],[2.226275113653047,41.40742973703967],[2.2258360345725787,41.40708779179283],[2.2254265556568313,41.407319924294896],[2.2258284981643803,41.40794336303504],[2.2258375435358717,41.40776091404468],[2.226079086429602,41.40788829267439],[2.225897158146142,41.40804543855063],[2.2262578816990333,41.40851344432151],[2.2261163263856587,41.408536983651196],[2.2263568981029067,41.40890383737691],[2.226411058512553,41.408647902333925],[2.2262566609790966,41.40843784522543],[2.2263885539915247,41.40839773001854],[2.2265331094674257,41.40857715836268],[2.2264173540905885,41.40889582186963],[2.226792314502701,41.40936158869497],[2.226746893528155,41.40965680664869],[2.227213481265915,41.41037752875024],[2.223250693579251,41.41198748797438],[2.2227945499563204,41.41231689460326],[2.2209755844201258,41.413078083550346],[2.2213682692804007,41.41351379461642],[2.220442767398682,41.41416662393745],[2.2181936245399765,41.41729369488889],[2.2177919885705686,41.41698908291044],[2.216093193298621,41.41826666882823],[2.2163211137054404,41.418437386466316],[2.214021126692307,41.42017264514392],[2.213786845115771,41.41999972854454],[2.2112789046361914,41.421670976935914],[2.2118150717103653,41.42207226813143],[2.2113225685711253,41.42256529724868],[2.2109494396843425,41.42346912053842],[2.2095991609076258,41.42434387950507],[2.209087244133145,41.42534473320392],[2.2086585023104535,41.42502270814502],[2.208434686558649,41.42517576981519],[2.207539630150952,41.42500187010157],[2.206766017232295,41.42542241244007],[2.206067071838676,41.4256125099141],[2.206761114130684,41.42675235279707],[2.206976022580037,41.42664970634873],[2.2073641222993587,41.42711129750025],[2.2068384551706357,41.42736088866829],[2.2073519141318867,41.42797666447126],[2.207275306091382,41.42878742303473],[2.207138714932267,41.428854011565704],[2.207323794627728,41.429068159274834],[2.2069209363190914,41.42991292135905],[2.207007614558635,41.43001373941147],[2.2065402995012304,41.43024240429725],[2.2067967001530935,41.430537055203786],[2.2064830693444355,41.43108071162809],[2.206171206418482,41.43227122788258],[2.2064707734435953,41.43264071753954],[2.2080414001484923,41.433130917078394],[2.2107591880150768,41.43343029359591],[2.2096270507106666,41.435759319918],[2.2079515598457826,41.441184798648074],[2.2071940616375185,41.44257654231781],[2.2061330132487535,41.4440002325098],[2.1995729723064557,41.45072490784244],[2.1977126376570384,41.45227590646863],[2.19131131805319,41.456851165147135],[2.188834728560484,41.459266637164475],[2.1881988085031163,41.460292580033645],[2.187716968048906,41.46161749108992],[2.1870605004908197,41.46771682009473]]],[[[2.175209337217267,41.34983860731435],[2.175193968234033,41.35023230809556],[2.1754110290410154,41.35084007294803],[2.176042679272328,41.35158826190894],[2.176092914372111,41.352306524629114],[2.1799217728131937,41.35811015269788],[2.183036300735174,41.3631602326531],[2.1834747607177927,41.36332043627905],[2.1830782152275745,41.364864068711015],[2.18328141834617,41.36490859958136],[2.1830595695885937,41.36519802271609],[2.1828586397333294,41.36515512535251],[2.182900932503253,41.36485481674532],[2.1824015556729077,41.364749232303794],[2.172423062188902,41.34928902254355],[2.172102496065402,41.34940378824792],[2.1719024374428506,41.34900882616834],[2.171869026713167,41.348853241199066],[2.1722195659210004,41.348810500077064],[2.1712907320332726,41.3445225067179],[2.171485786800185,41.34450090575421],[2.1716911846769307,41.344723250032914],[2.1723405999758687,41.34419278210862],[2.171522693354447,41.340316159712955],[2.1721289834937814,41.34016757382693],[2.1717785933348166,41.338663150654895],[2.1709935825859548,41.33875637049813],[2.17095056794571,41.33855927462684],[2.171091689673258,41.33818735634216],[2.1705368804656997,41.3356643870633],[2.170735748064634,41.33512716623379],[2.171067401357525,41.33507893276837],[2.1709547305599877,41.33409936258426],[2.170144279708054,41.33419242779153],[2.170271560966082,41.33456022469633],[2.1701757262049184,41.33462243376175],[2.169973394409147,41.33423580110105],[2.170103397872873,41.33406423420504],[2.171140315118615,41.33391932508928],[2.1693552528871276,41.32637089712653],[2.172409777118864,41.3174489463276],[2.172305227732916,41.31719072077042],[2.1725494083815033,41.317041959131004],[2.172808737261382,41.31709354521474],[2.172937208440768,41.317346051236],[2.1698880162141285,41.32639530523763],[2.173644508880743,41.34282219092623],[2.174169436218363,41.3457753100775],[2.17454558362903,41.3468739602638],[2.174663811750168,41.34782898044453],[2.174904606805024,41.34846835311005],[2.174860993765646,41.348788890109546],[2.175209337217267,41.34983860731435]]],[[[2.059358185121024,41.435387822640315],[2.057669248156919,41.435806355462354],[2.057727480842069,41.43550418376241],[2.057490405396335,41.43468256801708],[2.0579064670718106,41.43388701933387],[2.0575968666806825,41.43344582288332],[2.05841670084594,41.431295289124186],[2.05843799552763,41.43089820966092],[2.058447191119154,41.42918507544391],[2.0576902531926304,41.42789892448296],[2.0575542277725254,41.42712587482856],[2.057664968485039,41.42641969988529],[2.056790516045348,41.42581444133711],[2.0558678131618895,41.42548440710227],[2.0532574589081936,41.42500717962506],[2.052885568348652,41.4248221687528],[2.0523329052318346,41.42423033394013],[2.0524799487202348,41.424158585030405],[2.052516035182898,41.42381660036241],[2.0531608849930234,41.423664279626],[2.0539204034885867,41.422867066336146],[2.054476865578687,41.42270230162015],[2.0546437901434333,41.42241453520982],[2.0555445646731307,41.422272410435205],[2.0564648974468156,41.42135760214702],[2.0563771144429306,41.42047775760518],[2.056570671114631,41.42025055644111],[2.0568650063501366,41.419095515535794],[2.057300933144629,41.41840911944985],[2.056897464128201,41.416852031189435],[2.0568990347080267,41.41599904036589],[2.0562258472552446,41.41563502417933],[2.0559443558814445,41.41515982448665],[2.0546409083936035,41.41394933126706],[2.0549423911703935,41.41296891238946],[2.0549890455279844,41.41218236546803],[2.0568519520152013,41.41032990485063],[2.0574378403200315,41.41033446038748],[2.0587651326412937,41.41064647876711],[2.058996063955011,41.41098534874458],[2.05907429396359,41.41225869644411],[2.0582913303380295,41.41282282233255],[2.0607782484283432,41.41272693217191],[2.0614926658316057,41.412946501495206],[2.06204842822589,41.41366468309764],[2.063496070177315,41.413550233246426],[2.0641578783881753,41.414286735039575],[2.064903002183259,41.41609296657767],[2.064989857123336,41.416632235953024],[2.0642874491763914,41.41784056222012],[2.0645804930060687,41.41802623117283],[2.067241900117671,41.4180823984937],[2.068114756851493,41.418461259133295],[2.0704849536220906,41.41881209700348],[2.0701708370433884,41.42097734979595],[2.0697953037160963,41.42176610652579],[2.0698738552387135,41.422702952790296],[2.0693976309684876,41.423354092678856],[2.069674056939406,41.42517608092975],[2.0670155169112956,41.42635773721438],[2.0671159548736897,41.426814660367675],[2.0668184483004746,41.42738846821744],[2.0674445209861405,41.42815948888441],[2.0674954263992316,41.428642165780154],[2.0678664888784803,41.42879687132876],[2.067733657154977,41.42937644807174],[2.0678136727772563,41.429544783902344],[2.0664124765973484,41.429809370711475],[2.0659688086260224,41.43008034054996],[2.065536551230246,41.429903817602614],[2.0645818542892007,41.42991486803864],[2.0636622081242026,41.43112763140237],[2.063310685589904,41.43232200670004],[2.0633169018848263,41.43290446912075],[2.063098993302727,41.43294835048992],[2.062907810643289,41.43358316841537],[2.0621201651126646,41.43335835069118],[2.0600203932016394,41.433955246659146],[2.059498639337386,41.43447840990821],[2.059358185121024,41.435387822640315]]]]}},{"type":"Feature","properties":{"nivell":"ADM_02_PL","nom":"Ciutat Vella","districte":"01","codi_ua":"01"},"geometry":{"type":"Polygon","coordinates":[[[2.1845856357603193,41.389755531612366],[2.18132330009658,41.39222223068553],[2.179859179894687,41.39105219562046],[2.177490084359252,41.39016391655536],[2.175850816864574,41.38894897190959],[2.173408853054215,41.38894837228056],[2.172765375273975,41.38847424587229],[2.170284247887462,41.38587856060916],[2.1697689064005057,41.385573686219665],[2.164713785844914,41.385930198550525],[2.1640107669498434,41.38539849587451],[2.163088770566829,41.37874699364547],[2.1677881625181907,41.375167405553235],[2.16779689387186,41.374976161401854],[2.1752977101608693,41.37462137680102],[2.1757381207617326,41.374291950850555],[2.1754592919161517,41.37393088417299],[2.175628851607839,41.373521054671436],[2.175472784361737,41.37332645197743],[2.177094936528503,41.37275327670013],[2.1772881230612646,41.37251267963794],[2.182038944805088,41.370370903064064],[2.1829931199536627,41.37160589559816],[2.178123775998883,41.3738183933581],[2.1782708362065923,41.374006512073265],[2.1779762518038313,41.374138296022316],[2.1823047299535885,41.3795517383983],[2.182509559878655,41.3794595515321],[2.1832536150934967,41.377550014916245],[2.1815056249688443,41.375354718698134],[2.1816533122076316,41.37488804396377],[2.183057480384719,41.37433892378882],[2.1849929284292546,41.37674659550363],[2.1835504847874265,41.3804535713819],[2.184670935367592,41.380703665240326],[2.1859170098568264,41.38010997524159],[2.186029109756758,41.37955464177674],[2.186446074200913,41.379649293477215],[2.187263552146068,41.377598657769056],[2.1864364775234075,41.37741081600539],[2.1871973760769556,41.37722674500387],[2.1868946958408606,41.37600964729067],[2.186601951863004,41.37604994616908],[2.1868802157235243,41.37595315961706],[2.186926824744935,41.37562478065894],[2.1853067448329204,41.374975516535514],[2.1847299599610803,41.37502834108339],[2.185270720221565,41.37492245481015],[2.185207846699057,41.37453116821845],[2.184535244510806,41.37458400688004],[2.185197886530443,41.37447551219632],[2.1851369816180632,41.37408282979799],[2.1844697388128225,41.37416841240118],[2.185128615679577,41.374026878799036],[2.185066328762149,41.37363768147226],[2.184446651743574,41.37376313488154],[2.185057960533679,41.373580964807395],[2.185003548377545,41.373232510230295],[2.1843921932037764,41.37335929236469],[2.184987237373853,41.37313482507023],[2.184929824663045,41.37278923159323],[2.184264171626288,41.372986932112696],[2.1849323881738947,41.37267391724438],[2.1842335312548045,41.372950900934995],[2.184892131709739,41.37264569071495],[2.185611669998811,41.3726121879984],[2.1859342974579588,41.37453187806271],[2.18666052863897,41.37481515714004],[2.1874892136621784,41.374556990686635],[2.1868018550150055,41.37355998308457],[2.187092014367133,41.37378774409414],[2.186818596502205,41.37328728112242],[2.187545548494554,41.37315626708999],[2.1874032096722407,41.37227834217908],[2.185920352429567,41.372404784807394],[2.185796538294053,41.37169252945164],[2.186164286370137,41.371653984457915],[2.185791957507974,41.37161685172623],[2.185767591172263,41.37120903410952],[2.187213653434656,41.37110265269179],[2.1871429182460886,41.370643713364224],[2.184612225721763,41.37084520845566],[2.1845787812767297,41.37047553621024],[2.184964302403493,41.3704160343191],[2.18462434878575,41.36860547001614],[2.185192493283294,41.36848160519698],[2.185146885310997,41.36810434355137],[2.185953533651877,41.36802721931822],[2.1859880172187727,41.36831694771997],[2.1858605373395306,41.368447853273885],[2.186173601084374,41.37012564187037],[2.187201811010347,41.37000691154761],[2.186680796593625,41.36691232748015],[2.1853637868741935,41.3653584514418],[2.1851333189209075,41.365687180537286],[2.1849343218029804,41.36563097831849],[2.184935948974995,41.36525628483615],[2.1851316973487904,41.36529611804985],[2.1853128377052538,41.36475085223254],[2.185607868133865,41.36474947083673],[2.1859730004292173,41.364224659536475],[2.1866485639919406,41.36404526348013],[2.1867779912802745,41.364178777450185],[2.1861548504919743,41.3644074830404],[2.1858707535381936,41.36488479404166],[2.1868396059730215,41.36567301770344],[2.1874598996657455,41.36675731776417],[2.187895773313816,41.36723062371028],[2.189301841013311,41.366638068218876],[2.187414349146075,41.36357534856215],[2.1866888189665543,41.36328763638155],[2.1871627452661127,41.36307858862662],[2.186646645418721,41.36162423947289],[2.1852807450718377,41.35811260126087],[2.1851222181207532,41.35814529321536],[2.1850367742691748,41.35797759791835],[2.1846615508498486,41.35805989936532],[2.1845987618005176,41.357902858058274],[2.1853606024498453,41.35773416449548],[2.1868487523721702,41.36158852871526],[2.1870873252940943,41.361539770145804],[2.1875053812887546,41.36279420781961],[2.187729356430968,41.363083373117014],[2.187759119804799,41.36347113314846],[2.1918774089162407,41.36985701928771],[2.1915698643265977,41.37003722221059],[2.191111974849352,41.369394829166204],[2.1903474886866556,41.36951536025811],[2.1898461368827387,41.36992847558546],[2.1894913916927266,41.37068911450854],[2.189685887558777,41.372410420058344],[2.1908627487823638,41.37519144642373],[2.1912979579024516,41.37583646383757],[2.191949977856195,41.37645491676641],[2.192769079521662,41.37684164842003],[2.1934423873385396,41.37691793465104],[2.192868476328608,41.37763602637505],[2.1928715443817652,41.378403489565976],[2.193417487684257,41.379583683082444],[2.1945047605258274,41.380709034487914],[2.1949789894233054,41.380969401009715],[2.196531241616226,41.38040990160279],[2.1966355055167788,41.3802522330893],[2.1969276774834476,41.38029728350854],[2.1968258442203457,41.380573347094675],[2.1966481460731897,41.380519202708136],[2.19535186805582,41.38098667424167],[2.1956805141781235,41.38152153297059],[2.197024386722859,41.380954913495614],[2.1973170800568766,41.3811085883451],[2.195461989448596,41.381744227836215],[2.195568522495188,41.38252142227625],[2.195934117363412,41.38319419144966],[2.196559592565732,41.38382548412572],[2.197223644236037,41.38421324488551],[2.1981940245814933,41.38447985982014],[2.1983151913906815,41.38434101540596],[2.1982299433711256,41.38470306430746],[2.198604051236518,41.38499733402761],[2.1990833880543152,41.38463772233571],[2.19972219744978,41.38498742444035],[2.1964196739090056,41.38746570540119],[2.1959494057344364,41.38753827071754],[2.1957545450494536,41.38785245394036],[2.1935727210057716,41.38623950551963],[2.186769724698571,41.39139260184995],[2.1845856357603193,41.389755531612366]]]}},{"type":"Feature","properties":{"nivell":"ADM_02_PL","nom":"Eixample","districte":"02","codi_ua":"02"},"geometry":{"type":"Polygon","coordinates":[[[2.1868954648569425,41.40165447820544],[2.1845270221625235,41.40345150693427],[2.1856693102207543,41.4043058212446],[2.1754677901267323,41.41203643850192],[2.1686593058311345,41.40692897990924],[2.172042936888601,41.40436948347454],[2.1673534881430654,41.400855341173894],[2.166218154386184,41.4017096773398],[2.1592264740377742,41.39646055739538],[2.144978354118133,41.39285501159646],[2.1448352439111353,41.39245820376525],[2.1443444691542184,41.39238404447907],[2.1436493251585973,41.390500557723094],[2.1427510492432376,41.38660345725624],[2.1423028394826895,41.38071753261462],[2.1498988655510396,41.37507448162715],[2.16779689387186,41.374976161401854],[2.1677881625181907,41.375167405553235],[2.163088770566829,41.37874699364547],[2.1640107669498434,41.38539849587451],[2.164713785844914,41.385930198550525],[2.1697689064005057,41.385573686219665],[2.170284247887462,41.38587856060916],[2.172765375273975,41.38847424587229],[2.173408853054215,41.38894837228056],[2.175850816864574,41.38894897190959],[2.177490084359252,41.39016391655536],[2.179859179894687,41.39105219562046],[2.18132330009658,41.39222223068553],[2.182380953884802,41.39142013297261],[2.1867316946462396,41.39463945268453],[2.1866637066190417,41.394830622972286],[2.1868654893368564,41.39496837141036],[2.1868954648569425,41.40165447820544]]]}},{"type":"Feature","properties":{"nivell":"ADM_02_PL","nom":"Sants-Montjuïc","districte":"03","codi_ua":"03"},"geometry":{"type":"MultiPolygon","coordinates":[[[[2.1498988655510396,41.37507448162715],[2.1423028394826895,41.38071753261462],[2.1426419271363337,41.38561713048404],[2.1407071325705824,41.38417137189179],[2.139057167932378,41.38321636669665],[2.134807694689544,41.381532227705144],[2.130837212915996,41.3802707622317],[2.1275821811539366,41.37856143655919],[2.1227031659499525,41.37567376118868],[2.121786937204656,41.37569466569485],[2.1220814403535817,41.375414660725475],[2.1232407922626093,41.37485036997273],[2.1237608046043195,41.3743412673605],[2.1242669613882494,41.373540361940094],[2.1273006403078436,41.371626072983695],[2.129230116541338,41.37072613542017],[2.130415210873595,41.36973469082465],[2.131630762992196,41.36797219762758],[2.132030514586363,41.366777987646444],[2.132885416559828,41.365538415475896],[2.1336562765085922,41.363614568022705],[2.1354300573727505,41.36225650885451],[2.1346843209063566,41.36114892403735],[2.1329665820039727,41.35985283811948],[2.133309796363733,41.3593806476792],[2.1328523842080296,41.35919153115845],[2.1333651373150055,41.35848447523393],[2.1332159979983576,41.35842656122751],[2.1331935575420933,41.3574165689823],[2.1329700694632603,41.35649682638096],[2.133187915357862,41.35617743669705],[2.132069555586898,41.35574351970146],[2.133899830052537,41.35305960998786],[2.1337709610177935,41.353005059518445],[2.1350421606166132,41.35130105185507],[2.137422079749524,41.34877355008669],[2.1367861353118913,41.34836475304121],[2.1280919377428553,41.345298047959396],[2.1005265211836655,41.33604204929427],[2.1022496981790546,41.33535067512302],[2.104128390590984,41.33433540328821],[2.107653708463091,41.33174499957192],[2.1087488306331155,41.33072957950764],[2.1123024432558197,41.32611668950245],[2.115652673703105,41.323889877788915],[2.1189007872058565,41.32273402442494],[2.1217450136879097,41.32206619093088],[2.12579804894809,41.32135292914916],[2.1307118194009935,41.32077179342479],[2.1397687689196108,41.32111535951686],[2.1457415277124245,41.32075092388733],[2.149857305664407,41.32068287899853],[2.150815766804021,41.321674096747],[2.1517269274872155,41.323153669868866],[2.1522652051981717,41.32296421821482],[2.15235099913006,41.32307581206635],[2.153962680010597,41.327665170999914],[2.1542206496251235,41.32755693111341],[2.1540398701668706,41.32726919691315],[2.1542130185377557,41.32721377563102],[2.1544950855998253,41.32746619627539],[2.1542995150835633,41.3278601569043],[2.1588452185116886,41.32783479317205],[2.1589710861323845,41.32776307572264],[2.158722511985344,41.32728082973556],[2.158898603292777,41.327139364299164],[2.159202411346087,41.32722085098936],[2.1639138301967207,41.337971569108426],[2.1650997126252873,41.33787639269829],[2.165023489174626,41.33761321456271],[2.1651784301042634,41.337587730156216],[2.165388662412277,41.33831363590737],[2.1652351569932575,41.33833888779762],[2.165154614058471,41.3380732103588],[2.164075222993955,41.338322073602534],[2.16493663778392,41.34024514974267],[2.1656005159503717,41.34015729485873],[2.165729358151687,41.34061329191927],[2.165634740217518,41.34062875658593],[2.165528491023482,41.340253018655815],[2.1651782145250626,41.340340220887484],[2.1652883462023884,41.340591475500766],[2.165114377504216,41.34067256991171],[2.1653204065666607,41.34113582894143],[2.166136917576174,41.34106884951514],[2.166247809939303,41.34122805123178],[2.1661657507436147,41.34132519797403],[2.1636241250050583,41.341668040183926],[2.163660764034287,41.34184975511084],[2.163945310839081,41.341843139264654],[2.1642408444392878,41.34222704499447],[2.1625293031499053,41.34250141331626],[2.1624954068179196,41.342381978389305],[2.162644696280052,41.34235916759566],[2.1625931480747416,41.342073531549715],[2.1628363576663503,41.34200590658267],[2.1627769232880736,41.34180496553977],[2.1610485426170842,41.342084278644755],[2.1611789122032388,41.342592292464666],[2.1594796083893018,41.343251724355575],[2.159207260729294,41.34324608689754],[2.158250020722019,41.34258561696752],[2.157870990427534,41.34258918541904],[2.157080949421031,41.34223361049563],[2.1570880784138353,41.34240558130197],[2.1568491009785666,41.34229372213676],[2.156960871661469,41.342177496500355],[2.156232814931906,41.3418198927009],[2.1548176443864655,41.339505856590264],[2.1543814592927237,41.339034159275776],[2.1543989039722415,41.338831256592506],[2.154089639439539,41.33831156142123],[2.1537864935025137,41.337820905777576],[2.153606566547524,41.33779119979517],[2.1536663372568703,41.337626755563754],[2.1529326354068594,41.336431672268105],[2.1527548112877635,41.336401412955276],[2.152743270503911,41.33612351609529],[2.1520878894119675,41.33505399298467],[2.1518791711064686,41.3349633250282],[2.151934343118411,41.33480158603829],[2.1512810836530454,41.333751079792044],[2.151065948291725,41.33365893983134],[2.1511152049636038,41.33348712311462],[2.1503047340339823,41.33241494120687],[2.150339833445775,41.332233697412065],[2.1495526105531813,41.33120831396183],[2.1495278898450336,41.330931418100256],[2.1489126523822426,41.329998097390046],[2.1459016580950716,41.33098771398503],[2.146085358783186,41.33128586815645],[2.1458488124339063,41.33137118023295],[2.147280375768714,41.33369746635241],[2.1442792594960918,41.33474740038535],[2.1453142900292304,41.33642677265327],[2.1456278400682796,41.33632445966728],[2.145612559155716,41.336550626580475],[2.1495676741440217,41.33667561588508],[2.150924281396863,41.34648342397414],[2.1518697171727443,41.346408012174514],[2.151809666338334,41.34571993182681],[2.151957489652441,41.34640145293903],[2.1527405849735426,41.34634020450668],[2.152642417124738,41.34562831616858],[2.153007398240952,41.345599728631086],[2.1528539263651107,41.34449290173855],[2.1532176731450337,41.34446314245181],[2.153005955351783,41.34294312392678],[2.1531132610005903,41.342734865836675],[2.1533082821995158,41.342701135209445],[2.1632392086445695,41.348369254912],[2.1630412017494756,41.348451315210006],[2.1633778165605757,41.348641237307326],[2.1636963616989324,41.34852089654095],[2.16356276009389,41.348395621146224],[2.16690655269615,41.34714391718982],[2.1730512904465376,41.3565026975339],[2.1699005290633946,41.358647393539215],[2.170930877367584,41.36025131907194],[2.1754475177814303,41.35863075872435],[2.1767390101820574,41.36055284597387],[2.1736911685798237,41.361645713931466],[2.173843980287041,41.361879890478974],[2.1734800700888215,41.362035420193806],[2.1759830835649447,41.36532411580934],[2.1792795048335396,41.364120169620314],[2.1789928772580613,41.3636778630599],[2.179313673854453,41.36355987261594],[2.18075310461208,41.3658367895436],[2.1798266696101054,41.36622069444598],[2.17967546695627,41.365978808046336],[2.1765197827501255,41.36713181761731],[2.1766888815301186,41.36739790339298],[2.176392694644426,41.36742280653869],[2.176682224444898,41.36938573460497],[2.177039177895173,41.36935660393462],[2.177108837027274,41.36982090031387],[2.176751736162065,41.36984995357408],[2.1770896100766692,41.37214360861374],[2.1773759440519598,41.372119416958185],[2.1776215483322616,41.37236117826158],[2.177094936528503,41.37275327670013],[2.175472784361737,41.37332645197743],[2.175628851607839,41.373521054671436],[2.1754592919161517,41.37393088417299],[2.1757381207617326,41.374291950850555],[2.1752977101608693,41.37462137680102],[2.169998620978321,41.374955643370214],[2.1498988655510396,41.37507448162715]]],[[[2.175209337217267,41.34983860731435],[2.175193968234033,41.35023230809556],[2.1754110290410154,41.35084007294803],[2.176042679272328,41.35158826190894],[2.176092914372111,41.352306524629114],[2.1799217728131937,41.35811015269788],[2.183036300735174,41.3631602326531],[2.1834747607177927,41.36332043627905],[2.1830782152275745,41.364864068711015],[2.18328141834617,41.36490859958136],[2.1830595695885937,41.36519802271609],[2.1828586397333294,41.36515512535251],[2.182900932503253,41.36485481674532],[2.1824015556729077,41.364749232303794],[2.172423062188902,41.34928902254355],[2.172102496065402,41.34940378824792],[2.1719024374428506,41.34900882616834],[2.171869026713167,41.348853241199066],[2.1722195659210004,41.348810500077064],[2.1712907320332726,41.3445225067179],[2.171485786800185,41.34450090575421],[2.1716911846769307,41.344723250032914],[2.1723405999758687,41.34419278210862],[2.171522693354447,41.340316159712955],[2.1721289834937814,41.34016757382693],[2.1717785933348166,41.338663150654895],[2.1709935825859548,41.33875637049813],[2.17095056794571,41.33855927462684],[2.171091689673258,41.33818735634216],[2.1705368804656997,41.3356643870633],[2.170735748064634,41.33512716623379],[2.171067401357525,41.33507893276837],[2.1709547305599877,41.33409936258426],[2.170144279708054,41.33419242779153],[2.170271560966082,41.33456022469633],[2.1701757262049184,41.33462243376175],[2.169973394409147,41.33423580110105],[2.170103397872873,41.33406423420504],[2.171140315118615,41.33391932508928],[2.1693552528871276,41.32637089712653],[2.172409777118864,41.3174489463276],[2.172305227732916,41.31719072077042],[2.1725494083815033,41.317041959131004],[2.172808737261382,41.31709354521474],[2.172937208440768,41.317346051236],[2.1698880162141285,41.32639530523763],[2.173644508880743,41.34282219092623],[2.174169436218363,41.3457753100775],[2.17454558362903,41.3468739602638],[2.174663811750168,41.34782898044453],[2.174904606805024,41.34846835311005],[2.174860993765646,41.348788890109546],[2.175209337217267,41.34983860731435]]]]}},{"type":"Feature","properties":{"nivell":"ADM_02_PL","nom":"Les Corts","districte":"04","codi_ua":"04"},"geometry":{"type":"Polygon","coordinates":[[[2.103418130488737,41.40110207297572],[2.1029257830156354,41.40109657699496],[2.1028326676081304,41.40052027275166],[2.1016810363486647,41.39915045724072],[2.100495581593998,41.398551450275114],[2.100444565901855,41.39800294311919],[2.1001470407335554,41.39756359830736],[2.0999251304492113,41.39681249475899],[2.0993870831389523,41.39627164973997],[2.0990208974765276,41.39541238087623],[2.0985088542412407,41.394982659666645],[2.0977918066151755,41.393957105534575],[2.0980512925428196,41.39342872373192],[2.09912769277184,41.39281138800415],[2.099796018065564,41.392004543887104],[2.0998558157975267,41.390789676178194],[2.100248772874643,41.38968684672697],[2.100256875351445,41.38909877528631],[2.100589862498846,41.388409884661755],[2.102290769445304,41.38751810503523],[2.1011144053769066,41.38708145899995],[2.1022626171613377,41.38611790065005],[2.1026858640018,41.38555236723919],[2.1028932291947857,41.385487474645835],[2.1033935967556774,41.38455324784985],[2.103434853064911,41.38436751681594],[2.1027328455381924,41.3836273663975],[2.1011815427953278,41.38317565805676],[2.1019316664389835,41.381343030831964],[2.1026558336326913,41.38059632102627],[2.103861600136803,41.380065175942335],[2.1054989690762835,41.37887675750729],[2.1059825761038216,41.379233787520775],[2.1081409293489664,41.37813558773053],[2.1090649829907777,41.37703791414422],[2.1093064027190813,41.3759448645919],[2.1178012231608507,41.37577564722644],[2.121441225425024,41.37798561756814],[2.1216454296199454,41.3773416244296],[2.1216185767178035,41.376111858902],[2.121786937204656,41.37569466569485],[2.1227031659499525,41.37567376118868],[2.1275821811539366,41.37856143655919],[2.130837212915996,41.3802707622317],[2.134807694689544,41.381532227705144],[2.139057167932378,41.38321636669665],[2.1407071325705824,41.38417137189179],[2.1426419271363337,41.38561713048404],[2.1429397316985765,41.387677542903184],[2.143529434907914,41.390043408574805],[2.1443444691542184,41.39238404447907],[2.144054396207611,41.3925745897198],[2.138767455123978,41.39123837088353],[2.130668872792465,41.39246775357326],[2.1299776588953785,41.39268394942524],[2.129333013868311,41.39238256552104],[2.1222698312336994,41.39062182995761],[2.1208986484035646,41.3900907199279],[2.1205518403742176,41.39080414721113],[2.1200130548390197,41.391275695374446],[2.1180065172520655,41.39192389554427],[2.1175606396029147,41.392224209301965],[2.1181840220266226,41.39287722134534],[2.118477264150663,41.39376038245832],[2.1182941859897997,41.394588331192196],[2.117630025561647,41.39524133010451],[2.1156114372683685,41.395874695110365],[2.1131256531956866,41.39725881057571],[2.1119367530996955,41.39636396109078],[2.1099427506046946,41.39517447167208],[2.1096170626030166,41.395506513025815],[2.1094980733236763,41.39591268789751],[2.1097460920696505,41.39630447608654],[2.1096976916386136,41.396576762454345],[2.1089527926308156,41.397553993825376],[2.108651232947241,41.39845025552231],[2.108287263140691,41.39864357573783],[2.107738160224709,41.399233258105845],[2.1073531247858024,41.39936822278246],[2.1070717256645777,41.39980119296401],[2.106632779515842,41.40005908242222],[2.1053904320385266,41.400601218059855],[2.103418130488737,41.40110207297572]]]}},{"type":"Feature","properties":{"nivell":"ADM_02_PL","nom":"Sarrià-Sant Gervasi","districte":"05","codi_ua":"05"},"geometry":{"type":"MultiPolygon","coordinates":[[[[2.072554957319828,41.43546886199693],[2.0733402124178033,41.436448466447224],[2.07302786503921,41.43660692943364],[2.0717678299748683,41.4363023666755],[2.0711806988778996,41.435300874441374],[2.0709377950891907,41.434398697394265],[2.0714754601898884,41.43307795390491],[2.073121779770432,41.43066516016019],[2.074532093868298,41.429894516668405],[2.0754779164226766,41.42955166284466],[2.076617187165879,41.42870915611673],[2.073818176107817,41.427931929650626],[2.072991509623853,41.42752326574749],[2.073228062696298,41.42741555135132],[2.072949821778009,41.42628911234375],[2.0725436858566537,41.42578278609831],[2.07277405001882,41.425494200502584],[2.0727046894902412,41.4251528420224],[2.0731875170029372,41.42494418012416],[2.0745403679477703,41.42477998558472],[2.0751587543063907,41.424995905139454],[2.078118204901181,41.42494176743035],[2.079679308232433,41.424468984197176],[2.080543526088561,41.424579396090046],[2.0809615834379893,41.42400438588983],[2.0803608006152325,41.42398673853602],[2.080069081902749,41.42306486318012],[2.077908058310734,41.422478387836726],[2.076060799091287,41.422308136736206],[2.0753403616474184,41.421977303813776],[2.0769529491750887,41.421023050993355],[2.0770323551495258,41.4208056911332],[2.076831194527122,41.41953265383823],[2.0775153151466905,41.41902618142648],[2.0776499308530254,41.41859751697389],[2.0787576653809716,41.41886398984781],[2.0786036657106894,41.41857333871166],[2.078768725236051,41.41839569721826],[2.078647628011955,41.418004002953865],[2.0790319580271164,41.417601169119365],[2.0792829594717994,41.41674710773432],[2.0798092689861405,41.416245858041094],[2.0797444134574574,41.41565924234961],[2.0794574610811876,41.41556812704179],[2.079044098597699,41.41513301119058],[2.0790669913831854,41.414935541482436],[2.078585185313602,41.414978809773466],[2.0773392201286462,41.41462777099232],[2.077310387454353,41.41444147306325],[2.0763043806374903,41.413550392076004],[2.076047427899224,41.412727867918264],[2.0755452641425496,41.41239106302815],[2.07454097298608,41.41220154297924],[2.0741340652202873,41.41188475603641],[2.073439562978504,41.411860798752464],[2.07306095526877,41.41142565292909],[2.072136950447407,41.410954523990746],[2.071350529615163,41.40880665426741],[2.072061874707122,41.40754458909657],[2.0715235008084134,41.40718650870043],[2.0703168247942636,41.40722995614047],[2.069999593456689,41.40702777011504],[2.0705021574848006,41.4060407686408],[2.072058257597332,41.404094089706774],[2.072192279320764,41.40346419111331],[2.0727924461250713,41.40315750287988],[2.0737515633011774,41.40329620480407],[2.074893613184993,41.4029089795669],[2.0756071558704057,41.40317791166417],[2.076406703135858,41.40319325915847],[2.077774824013851,41.40286731858304],[2.07859255179082,41.403120666464545],[2.0801196805437736,41.40454743000856],[2.080422249605078,41.40596346617746],[2.0809753093868135,41.40639036188335],[2.0824516859667255,41.40708069409309],[2.0827915165447233,41.40776251346255],[2.0835425866023742,41.408279124783775],[2.083637888251021,41.40854256819315],[2.0841352737698697,41.40893834741073],[2.084133392745206,41.40935483876181],[2.085455742343825,41.409713894709846],[2.086695734433096,41.40953282731006],[2.087591962637028,41.408929899602],[2.0895999052322844,41.40843968519953],[2.0917253316651663,41.40819319333918],[2.0926641542551216,41.408269597203656],[2.094231508264848,41.40794699409906],[2.095652498707716,41.40784978557416],[2.0962241978257343,41.40796673777769],[2.096655097344765,41.40824060853928],[2.0969462367672764,41.40880472873119],[2.0973242896568256,41.409107356402096],[2.09900336295762,41.40886178948552],[2.1006071968667617,41.40836817143338],[2.1016018457154644,41.40699569725356],[2.1018117837419066,41.405119394232166],[2.10286498283073,41.4048160621546],[2.1037076394412257,41.4042352862841],[2.1038254999347443,41.40328868839025],[2.103152933871354,41.40205038319459],[2.103175649828645,41.401651433050496],[2.1029257830156354,41.40109657699496],[2.1035159685251803,41.40108608145108],[2.105384931152499,41.40060298669043],[2.1070717256645777,41.39980119296401],[2.1073531247858024,41.39936822278246],[2.107738160224709,41.399233258105845],[2.108750017555089,41.39831109774567],[2.1089527926308156,41.397553993825376],[2.1096976916386136,41.396576762454345],[2.1097460920696505,41.39630447608654],[2.1094980733236763,41.39591268789751],[2.1096170626030166,41.395506513025815],[2.1099427506046946,41.39517447167208],[2.1119367530996955,41.39636396109078],[2.1131256531956866,41.39725881057571],[2.1156114372683685,41.395874695110365],[2.117630025561647,41.39524133010451],[2.1182941859897997,41.394588331192196],[2.118477264150663,41.39376038245832],[2.1181840220266226,41.39287722134534],[2.1175606396029147,41.392224209301965],[2.1180065172520655,41.39192389554427],[2.1200130548390197,41.391275695374446],[2.1205518403742176,41.39080414721113],[2.1208986484035646,41.3900907199279],[2.1222698312336994,41.39062182995761],[2.129333013868311,41.39238256552104],[2.1299776588953785,41.39268394942524],[2.130668872792465,41.39246775357326],[2.138767455123978,41.39123837088353],[2.144054396207611,41.3925745897198],[2.1443444691542184,41.39238404447907],[2.144656959163048,41.39238150384823],[2.1449394568066107,41.39255368305933],[2.144978354118133,41.39285501159646],[2.155710715849695,41.39557093856424],[2.1549311699248075,41.39677717295356],[2.1512257865502917,41.4004919872098],[2.151155276345098,41.40149222552118],[2.149923187146117,41.40320755732398],[2.1500281763584796,41.40378054213363],[2.150373552708672,41.404367300147186],[2.149971070037425,41.405509357848345],[2.15006736770636,41.40599494170652],[2.1490269090484575,41.40689032052719],[2.1487913520364277,41.40672610752276],[2.148913617878401,41.40654888110458],[2.1483848287731213,41.40681202189711],[2.1484971946412688,41.40689171309464],[2.1483764749509753,41.40698897404137],[2.1486589500558364,41.40718831922864],[2.147667881222947,41.4080014767446],[2.145361329207971,41.41105250850294],[2.144774949386627,41.41134121813682],[2.1406976921424943,41.41183851331978],[2.13795740657077,41.41397431465327],[2.1370249693672076,41.414458685776744],[2.13615171133105,41.415223325620694],[2.136062578454632,41.41558882568509],[2.136314803515493,41.41598785189639],[2.1343214838658047,41.417707568535675],[2.1322778887617475,41.41857807432786],[2.1312446724298275,41.41823532581796],[2.130545442253992,41.41828483686882],[2.130059052933338,41.41911182261611],[2.1300864903204677,41.41964725272365],[2.1295027043884773,41.41943692675103],[2.1290706120157767,41.419596541849266],[2.128758235763824,41.41993173981659],[2.127452747802747,41.419375455169366],[2.128166801428953,41.41876344298662],[2.1279096145068563,41.41828817025118],[2.1286160260971805,41.417810146995286],[2.128928496901918,41.41742165920007],[2.121162873719863,41.420710073609705],[2.1215053835568707,41.420868575957606],[2.121512106855571,41.42112443871388],[2.1208829653190513,41.421877140876205],[2.1204265066014076,41.42272191881092],[2.120545089976053,41.42311374831112],[2.1205152595606283,41.42410765340507],[2.121343863115972,41.42546733445188],[2.1211834547223813,41.42588691145002],[2.1195592959552183,41.42573999047585],[2.11710539170154,41.426268618498455],[2.116322286475369,41.42666172086861],[2.1154609802753734,41.426876710735286],[2.1154165885339933,41.42749439550462],[2.115083053826644,41.42781747431801],[2.1133236170967207,41.42850357037048],[2.112939524637977,41.42836020877123],[2.112336954401961,41.42861300681422],[2.1118641523878403,41.42835033196774],[2.11101459323649,41.42828377800689],[2.110148838394828,41.428475945309586],[2.1097126844857526,41.4284165464386],[2.10900572598255,41.42875112984559],[2.106679021251473,41.42863282901094],[2.106341002205441,41.4285033125087],[2.1058536896350644,41.42856391919875],[2.1057453339055625,41.42878355268076],[2.105306097934873,41.428839471272006],[2.1035947676834135,41.42810962025682],[2.103220444315637,41.42807402940126],[2.1021103611069756,41.42868560144307],[2.101145601089462,41.429787913895325],[2.099899535669481,41.43011078302215],[2.0991455052256884,41.43012209500787],[2.0987248837433543,41.4308896016725],[2.0989407653734458,41.431698652276175],[2.0970850071672245,41.43250143081353],[2.0960693258390837,41.43327240709323],[2.0954888799684075,41.432853815197575],[2.0947127813364284,41.43275890992383],[2.0940721904601225,41.43210985834536],[2.0936003276405524,41.4312685857463],[2.092497337271845,41.43016497687428],[2.0922880276535207,41.429612614494744],[2.09111685319776,41.42917730666527],[2.090834554290005,41.42881271913241],[2.0904259731991366,41.42864378167843],[2.0900333433959903,41.42893915566572],[2.0892057464735982,41.42921383713602],[2.0889765135840794,41.429144442973715],[2.0887898801904865,41.42862154771894],[2.0861573488940803,41.4289149243232],[2.0855760058457253,41.429070319950306],[2.0853689065030214,41.42931572823783],[2.0838904902531765,41.42997299616809],[2.0837042172465465,41.43016453714554],[2.083853320878691,41.43041764322335],[2.083418302146454,41.43085275373587],[2.0826106406841194,41.43078458537491],[2.082451075987123,41.43113849508426],[2.0825824522350413,41.43148139501482],[2.0823176055938744,41.43162932456092],[2.0814370494327252,41.431576428500755],[2.0811077806553087,41.431201258510214],[2.081245576331674,41.43073096404314],[2.080769567128753,41.43063882846038],[2.0801518065512297,41.43087979758195],[2.080259728913032,41.43155946111296],[2.07996980524496,41.43189036223508],[2.0781647070660734,41.43203493687021],[2.0767141715318687,41.432849990288474],[2.075293679524088,41.432962432850665],[2.074845098946959,41.43344413471377],[2.0750659688556286,41.43387059123413],[2.075131271535443,41.43450373455602],[2.0747722894459595,41.4353017920744],[2.073948870489664,41.435348033742045],[2.0731873112533736,41.435211622093995],[2.0728320708758154,41.4354586916649],[2.072554957319828,41.43546886199693]]],[[[2.059358185121024,41.435387822640315],[2.057669248156919,41.435806355462354],[2.057727480842069,41.43550418376241],[2.057490405396335,41.43468256801708],[2.0579064670718106,41.43388701933387],[2.0575968666806825,41.43344582288332],[2.05841670084594,41.431295289124186],[2.05843799552763,41.43089820966092],[2.058447191119154,41.42918507544391],[2.0576902531926304,41.42789892448296],[2.0575542277725254,41.42712587482856],[2.057664968485039,41.42641969988529],[2.056790516045348,41.42581444133711],[2.0558678131618895,41.42548440710227],[2.0532574589081936,41.42500717962506],[2.052885568348652,41.4248221687528],[2.0523329052318346,41.42423033394013],[2.0524799487202348,41.424158585030405],[2.052516035182898,41.42381660036241],[2.0531608849930234,41.423664279626],[2.0539204034885867,41.422867066336146],[2.054476865578687,41.42270230162015],[2.0546437901434333,41.42241453520982],[2.0555445646731307,41.422272410435205],[2.0564648974468156,41.42135760214702],[2.0563771144429306,41.42047775760518],[2.056570671114631,41.42025055644111],[2.0568650063501366,41.419095515535794],[2.057300933144629,41.41840911944985],[2.056897464128201,41.416852031189435],[2.0568990347080267,41.41599904036589],[2.0562258472552446,41.41563502417933],[2.0559443558814445,41.41515982448665],[2.0546409083936035,41.41394933126706],[2.0549423911703935,41.41296891238946],[2.0549890455279844,41.41218236546803],[2.0568519520152013,41.41032990485063],[2.0574378403200315,41.41033446038748],[2.0587651326412937,41.41064647876711],[2.058996063955011,41.41098534874458],[2.05907429396359,41.41225869644411],[2.0582913303380295,41.41282282233255],[2.0607782484283432,41.41272693217191],[2.0614926658316057,41.412946501495206],[2.06204842822589,41.41366468309764],[2.063496070177315,41.413550233246426],[2.0641578783881753,41.414286735039575],[2.064903002183259,41.41609296657767],[2.064989857123336,41.416632235953024],[2.0642874491763914,41.41784056222012],[2.0645804930060687,41.41802623117283],[2.067241900117671,41.4180823984937],[2.068114756851493,41.418461259133295],[2.0704849536220906,41.41881209700348],[2.0701708370433884,41.42097734979595],[2.0697953037160963,41.42176610652579],[2.0698738552387135,41.422702952790296],[2.0693976309684876,41.423354092678856],[2.069674056939406,41.42517608092975],[2.0670155169112956,41.42635773721438],[2.0671159548736897,41.426814660367675],[2.0668184483004746,41.42738846821744],[2.0674445209861405,41.42815948888441],[2.0674954263992316,41.428642165780154],[2.0678664888784803,41.42879687132876],[2.067733657154977,41.42937644807174],[2.0678136727772563,41.429544783902344],[2.0664124765973484,41.429809370711475],[2.0659688086260224,41.43008034054996],[2.065536551230246,41.429903817602614],[2.0645818542892007,41.42991486803864],[2.0636622081242026,41.43112763140237],[2.063310685589904,41.43232200670004],[2.0633169018848263,41.43290446912075],[2.063098993302727,41.43294835048992],[2.062907810643289,41.43358316841537],[2.0621201651126646,41.43335835069118],[2.0600203932016394,41.433955246659146],[2.059498639337386,41.43447840990821],[2.059358185121024,41.435387822640315]]]]}},{"type":"Feature","properties":{"nivell":"ADM_02_PL","nom":"Gràcia","districte":"06","codi_ua":"06"},"geometry":{"type":"Polygon","coordinates":[[[2.1362851097908795,41.423627106324425],[2.1359796990064823,41.42454492341642],[2.1351058057060124,41.424879675945846],[2.1350475754709195,41.42470360204087],[2.1353428797091167,41.42424735202423],[2.1347834990417236,41.423576292077364],[2.134567119994867,41.423511375558704],[2.1342137375112453,41.42278019455141],[2.1347063408843154,41.42213032483688],[2.1328141846405044,41.42258717627921],[2.1319030862629678,41.422527323266245],[2.1305802561634266,41.42274995130424],[2.1299501546381494,41.42256638102668],[2.1312647361546344,41.421332443691796],[2.1313009396772884,41.42105288451187],[2.132202898749799,41.419934300931416],[2.1310060219592573,41.41939307058392],[2.130583331147839,41.41991629041734],[2.130070350773029,41.420075978917474],[2.1296684952545437,41.419586330191464],[2.1293172321818807,41.419520352693844],[2.1295961957981633,41.41943439142627],[2.1299954175542077,41.41965683254651],[2.1301288138508485,41.41960523772852],[2.130059052933338,41.41911182261611],[2.130545442253992,41.41828483686882],[2.1312446724298275,41.41823532581796],[2.1322778887617475,41.41857807432786],[2.1343214838658047,41.417707568535675],[2.136314803515493,41.41598785189639],[2.136062578454632,41.41558882568509],[2.13615171133105,41.415223325620694],[2.1370249693672076,41.414458685776744],[2.13795740657077,41.41397431465327],[2.1408183048838705,41.411770903322314],[2.144774949386627,41.41134121813682],[2.145361329207971,41.41105250850294],[2.147667881222947,41.4080014767446],[2.1486589500558364,41.40718831922864],[2.1483764749509753,41.40698897404137],[2.1484971946412688,41.40689171309464],[2.1483848287731213,41.40681202189711],[2.148913617878401,41.40654888110458],[2.1487913520364277,41.40672610752276],[2.1490269090484575,41.40689032052719],[2.15006736770636,41.40599494170652],[2.149971070037425,41.405509357848345],[2.150373552708672,41.404367300147186],[2.1500281763584796,41.40378054213363],[2.149923187146117,41.40320755732398],[2.151155276345098,41.40149222552118],[2.1512257865502917,41.4004919872098],[2.1549311699248075,41.39677717295356],[2.155710715849695,41.39557093856424],[2.1592264740377742,41.39646055739538],[2.166218154386184,41.4017096773398],[2.1673534881430654,41.400855341173894],[2.172042936888601,41.40436948347454],[2.163690024644807,41.410723944849124],[2.161235804058413,41.41356818457604],[2.161422201506898,41.413757477834054],[2.161381620029173,41.413936067634154],[2.161056345452469,41.41417570072171],[2.1604975526498937,41.41392428775172],[2.1601326043367264,41.41396293876685],[2.1589477732272773,41.414635056887754],[2.158086499847466,41.41557746417542],[2.157572149272493,41.41651775325461],[2.157211923125022,41.41651262894449],[2.156628233135932,41.415615928337026],[2.1559947037289997,41.41518930087894],[2.155464777072022,41.41511984860284],[2.155223329832272,41.41492409845676],[2.15465604231215,41.41522397857334],[2.1527200152349737,41.4168092307307],[2.151924247559537,41.41690491494861],[2.1516765827013655,41.41720605493716],[2.15098967527291,41.41758832845777],[2.1509085827599335,41.417998968199974],[2.1515165855101817,41.418935369846565],[2.151773864564103,41.42014275549763],[2.1492717058058606,41.42037120793578],[2.149488424655715,41.420605765543016],[2.149474766514133,41.42164103880739],[2.1478019526470304,41.4215922534469],[2.1469764224615244,41.42126447846468],[2.145143178954224,41.42089303213024],[2.1438975373991265,41.42014023423527],[2.142206015510217,41.4214535017171],[2.141837134803836,41.421556588267414],[2.1404554884079823,41.42109806322921],[2.1400401165061504,41.42023240568224],[2.137721776189942,41.42099419751351],[2.137739244542447,41.421287520901444],[2.1382681853396472,41.42153290166905],[2.1384398954808597,41.42176748061146],[2.138079860448137,41.42282454602279],[2.1375898285983093,41.42332064281136],[2.1362851097908795,41.423627106324425]]]}},{"type":"Feature","properties":{"nivell":"ADM_02_PL","nom":"Horta-Guinardó","districte":"07","codi_ua":"07"},"geometry":{"type":"Polygon","coordinates":[[[2.1204383098301367,41.422802337412],[2.1208829653190513,41.421877140876205],[2.121512106855571,41.42112443871388],[2.1215053835568707,41.420868575957606],[2.121162873719863,41.420710073609705],[2.128928496901918,41.41742165920007],[2.1286160260971805,41.417810146995286],[2.1279096145068563,41.41828817025118],[2.128166801428953,41.41876344298662],[2.127462192549282,41.419249783717454],[2.127581717794187,41.419497420383536],[2.1287898311705535,41.41993324012398],[2.1290706120157767,41.419596541849266],[2.12952388886035,41.41951315854977],[2.130104431584263,41.4200777588733],[2.130583331147839,41.41991629041734],[2.130863147487539,41.41945916887347],[2.131091832260292,41.419392223470155],[2.132202898749799,41.419934300931416],[2.1313009396772884,41.42105288451187],[2.1312647361546344,41.421332443691796],[2.1299501546381494,41.42256638102668],[2.1305802561634266,41.42274995130424],[2.1319030862629678,41.422527323266245],[2.1328141846405044,41.42258717627921],[2.1347063408843154,41.42213032483688],[2.1342137375112453,41.42278019455141],[2.134567119994867,41.423511375558704],[2.1347834990417236,41.423576292077364],[2.1353428797091167,41.42424735202423],[2.1350475754709195,41.42470360204087],[2.1351058057060124,41.424879675945846],[2.1359796990064823,41.42454492341642],[2.1362851097908795,41.423627106324425],[2.1375898285983093,41.42332064281136],[2.138079860448137,41.42282454602279],[2.1384398954808597,41.42176748061146],[2.1382681853396472,41.42153290166905],[2.137739244542447,41.421287520901444],[2.137721776189942,41.42099419751351],[2.1400401165061504,41.42023240568224],[2.1404554884079823,41.42109806322921],[2.141837134803836,41.421556588267414],[2.142206015510217,41.4214535017171],[2.1438975373991265,41.42014023423527],[2.145143178954224,41.42089303213024],[2.1469764224615244,41.42126447846468],[2.1478019526470304,41.4215922534469],[2.149474766514133,41.42164103880739],[2.149488424655715,41.420605765543016],[2.1492717058058606,41.42037120793578],[2.151773864564103,41.42014275549763],[2.1515165855101817,41.418935369846565],[2.1509085827599335,41.417998968199974],[2.15098967527291,41.41758832845777],[2.1516765827013655,41.41720605493716],[2.151924247559537,41.41690491494861],[2.1527200152349737,41.4168092307307],[2.15465604231215,41.41522397857334],[2.155223329832272,41.41492409845676],[2.155464777072022,41.41511984860284],[2.1559947037289997,41.41518930087894],[2.156628233135932,41.415615928337026],[2.157211923125022,41.41651262894449],[2.157572149272493,41.41651775325461],[2.1583489539266205,41.41522861580578],[2.1591932309670274,41.41444741048351],[2.1602771852392317,41.41392712925322],[2.161056345452469,41.41417570072171],[2.161381620029173,41.413936067634154],[2.161422201506898,41.413757477834054],[2.161235804058413,41.41356818457604],[2.163690024644807,41.410723944849124],[2.1686593058311345,41.40692897990924],[2.180484428205486,41.415831784210624],[2.180394936222036,41.41748219764409],[2.180827510558462,41.419836064788576],[2.18079562300239,41.42023668786599],[2.1804701455724955,41.42071335786216],[2.1758952679789134,41.42553835848588],[2.1699806226158698,41.42717877028632],[2.1642202437578986,41.42791120859098],[2.163631657881686,41.42809678372932],[2.166147523863052,41.42962593742245],[2.164311041950968,41.430765811130755],[2.1632312179087694,41.43197697142577],[2.1631109184193957,41.4328800739338],[2.1635811111234786,41.43456330845348],[2.1642647830114683,41.43628545452101],[2.163167649332453,41.436587591304104],[2.1635200992557424,41.43710355121171],[2.1631303900900725,41.43736453555066],[2.163659704732563,41.43785979972899],[2.1624396432083755,41.438585469360454],[2.1616642441022793,41.439286152346504],[2.161800292890759,41.43966442793702],[2.1615605754514977,41.43994984773186],[2.1615501675193083,41.440271417178614],[2.1618900316715988,41.440664635920186],[2.1623699569382553,41.440793492277336],[2.1624009677938627,41.44132517510125],[2.160125956882832,41.442202434328934],[2.159968437100594,41.4423811047743],[2.159697668465238,41.4421229957496],[2.1591871321722245,41.44237602733285],[2.158698095116586,41.44301095200428],[2.158407861212127,41.44385518433218],[2.157990944837697,41.444204737915236],[2.157949947364437,41.444527642043056],[2.1577073681334697,41.444834838608514],[2.15570763536782,41.44565214024049],[2.1572533600392187,41.44605176630719],[2.157592359374665,41.44671285356251],[2.157469302844453,41.44708594022436],[2.157042007035351,41.44743256775678],[2.1574934667634196,41.44747046358456],[2.1579402335728735,41.44771208901396],[2.159424757057127,41.44939473386763],[2.159477686369707,41.44996131480039],[2.159109492078654,41.45051827683208],[2.157445115533247,41.449591967645915],[2.1565793146510335,41.449913744831214],[2.156019035331456,41.44995356825226],[2.1544076407571864,41.44940989277518],[2.1534322118028943,41.44865150035398],[2.153268636304201,41.447789187852976],[2.1527573881699236,41.44760977902785],[2.1519712664140993,41.44702661127559],[2.150750196592038,41.44730043588731],[2.1495301010977554,41.44722386637253],[2.148424061914057,41.44675630586905],[2.1475823647152565,41.446947334216745],[2.146615494826617,41.44755447100518],[2.145038365408312,41.44795529959253],[2.1435056569300306,41.44761692891799],[2.142348007013053,41.44698048723381],[2.142032513550216,41.44693850199506],[2.141652402853334,41.44698520712142],[2.140816718876284,41.44744465157782],[2.137812269421981,41.44795631156685],[2.1371068373805584,41.447617748038425],[2.136628696528522,41.447743867083496],[2.135737350214011,41.447432723363214],[2.134731231098775,41.44756117173372],[2.134584246190946,41.44709078009248],[2.1338404469554018,41.44603852109453],[2.132907632571037,41.445427997177596],[2.132782124436145,41.44460467446486],[2.132112703557145,41.44417357537632],[2.1307190982228104,41.44382887787344],[2.129943722258215,41.44302986292983],[2.1299447749440983,41.442473603662435],[2.1295000897038983,41.44191266525868],[2.129955656076868,41.44108619096777],[2.129928019790072,41.44066977535986],[2.1293508821208365,41.440084571813],[2.1294735032766763,41.43872993556197],[2.129237046971633,41.437663041061896],[2.128613698729233,41.43678992185037],[2.1287998064463616,41.43620778733276],[2.128844176891933,41.43517789382595],[2.128331298522326,41.43406019564127],[2.128301032798776,41.43352179148171],[2.1275367417556597,41.43313992767353],[2.1272660306693716,41.43263172260849],[2.1265210850528993,41.43184679925045],[2.126423594327063,41.431675212374685],[2.126527163234339,41.43160954197229],[2.1241096432671123,41.42961397431461],[2.122657762633438,41.428761578181884],[2.1230819827733947,41.42869355389567],[2.1219965110830903,41.42652839504819],[2.121214952186918,41.42578262795555],[2.1213471514299997,41.42562021577661],[2.1213112155576526,41.425386576624554],[2.120467905246883,41.42394004125263],[2.120545089976053,41.42311374831112],[2.1204383098301367,41.422802337412]]]}},{"type":"Feature","properties":{"nivell":"ADM_02_PL","nom":"Nou Barris","districte":"08","codi_ua":"08"},"geometry":{"type":"Polygon","coordinates":[[[2.155707366560936,41.44568857326769],[2.1577073681334697,41.444834838608514],[2.157949947364437,41.444527642043056],[2.157990944837697,41.444204737915236],[2.158407861212127,41.44385518433218],[2.158698095116586,41.44301095200428],[2.1591871321722245,41.44237602733285],[2.159697668465238,41.4421229957496],[2.159968437100594,41.4423811047743],[2.160125956882832,41.442202434328934],[2.1624009677938627,41.44132517510125],[2.1623699569382553,41.440793492277336],[2.1618900316715988,41.440664635920186],[2.1615501675193083,41.440271417178614],[2.1615605754514977,41.43994984773186],[2.161800292890759,41.43966442793702],[2.1616642441022793,41.439286152346504],[2.1624396432083755,41.438585469360454],[2.1636596998988487,41.43785980329684],[2.1631303900900725,41.43736453555066],[2.1635200992557424,41.43710355121171],[2.163167649332453,41.436587591304104],[2.1642647830114683,41.43628545452101],[2.1635811111234786,41.43456330845348],[2.1631109184193957,41.4328800739338],[2.1632312179087694,41.43197697142577],[2.164311041950968,41.430765811130755],[2.166147523863052,41.42962593742245],[2.163631657881686,41.42809678372932],[2.1642202437578986,41.42791120859098],[2.1699806226158698,41.42717877028632],[2.1760640177209503,41.42545048705476],[2.1773034514229703,41.425487680026905],[2.1772918963997605,41.42817388974172],[2.1794433403201943,41.42783640624581],[2.1842983674861034,41.42764445800845],[2.1843736459189214,41.42835003652553],[2.182786528905378,41.43063650617983],[2.182672353523937,41.43120488465812],[2.182751529146359,41.4317466235128],[2.185494638759158,41.43989905747398],[2.1883374545447927,41.448857924444326],[2.1887992440797617,41.45068844590686],[2.1889115084959,41.45324593681866],[2.1887754899671887,41.45484420334504],[2.1885567232404797,41.455650922381494],[2.1878908685442457,41.456906917571274],[2.188790815174569,41.4573040864744],[2.1880714646209753,41.45831800572202],[2.187636465488073,41.45964395010837],[2.1874009230537297,41.46208199175122],[2.1876413363157865,41.46211959156455],[2.1870605004908197,41.46771682009473],[2.185381980770834,41.46779509718891],[2.1845831206052724,41.46819672849156],[2.1837853928680104,41.46829647686976],[2.1806928458263233,41.46767315548651],[2.179413336502136,41.46759399944476],[2.1786948515395452,41.46818418429087],[2.1786097366593604,41.46742052365612],[2.178935621790762,41.46653473063653],[2.179844279359639,41.46550557020932],[2.1807119110858197,41.46494026119684],[2.1762511898660057,41.46399006289045],[2.175730368113858,41.463733034976656],[2.174915948904621,41.463852216884106],[2.174878012445839,41.463699280236824],[2.174352084850964,41.463484012776924],[2.1743545182600754,41.46297171664124],[2.174169339107269,41.46263722176102],[2.1737604486352735,41.4625352374071],[2.172646185253229,41.461868853377375],[2.1714050719862787,41.46082198211575],[2.1712235106233257,41.46121342636491],[2.168318160487477,41.46028489561023],[2.1682628683408596,41.460697227382],[2.167325374422759,41.46068025112695],[2.1672418309075923,41.46047226903414],[2.167524534739251,41.459931205299995],[2.1671663514029085,41.459799986880576],[2.166934390199429,41.459492311459684],[2.166921392199476,41.45917452546723],[2.1661622458596264,41.45846539484442],[2.165740755834424,41.458372956492454],[2.164168684893666,41.45579380872813],[2.1644065906833845,41.455115588030985],[2.1649238573114644,41.45477051546459],[2.164801262953158,41.4526752123687],[2.1653326802252093,41.45224912429254],[2.1655684824137684,41.45179536003604],[2.165555915345391,41.451481814601195],[2.164756705697217,41.451060888939324],[2.164358822487733,41.450569133721565],[2.1641700648115916,41.44986562918898],[2.1640376736850846,41.44978579915726],[2.1627865123399497,41.449789259035505],[2.1618604604647365,41.45025837795474],[2.159109492078654,41.45051827683208],[2.159477686369707,41.44996131480039],[2.159424757057127,41.44939473386763],[2.1579402335728735,41.44771208901396],[2.1574934667634196,41.44747046358456],[2.157042007035351,41.44743256775678],[2.157469302844453,41.44708594022436],[2.157592359374665,41.44671285356251],[2.1572533600392187,41.44605176630719],[2.155707366560936,41.44568857326769]]]}},{"type":"Feature","properties":{"nivell":"ADM_02_PL","nom":"Sant Andreu","districte":"09","codi_ua":"09"},"geometry":{"type":"Polygon","coordinates":[[[2.1876413363157865,41.46211959156455],[2.1874009230537297,41.46208199175122],[2.1877190034941623,41.459233056728515],[2.1880714646209753,41.45831800572202],[2.1887908127464386,41.45730408915949],[2.1878908685442457,41.456906917571274],[2.1885567232404797,41.455650922381494],[2.1887754899671887,41.45484420334504],[2.1889115084959,41.45324593681866],[2.1887992440797617,41.45068844590686],[2.1883374545447927,41.448857924444326],[2.185494638759158,41.43989905747398],[2.182751529146359,41.4317466235128],[2.182672353523937,41.43120488465812],[2.182786528905378,41.43063650617983],[2.1843736459189214,41.42835003652553],[2.1842983674861034,41.42764445800845],[2.1794433403201943,41.42783640624581],[2.1772918963997605,41.42817388974172],[2.1773034514229703,41.425487680026905],[2.1760640177209503,41.42545048705476],[2.1807460483779266,41.42035452538015],[2.180827510558462,41.419836064788576],[2.180394936222036,41.41748219764409],[2.180484428205486,41.415831784210624],[2.183360972634387,41.41795044696965],[2.1890339843154702,41.413677502005974],[2.1909774872015455,41.41516837282671],[2.1911089997889124,41.41554270864463],[2.192414384648834,41.41454537578438],[2.1935434622785577,41.41539701678922],[2.193234258797994,41.41631549201568],[2.193293498998992,41.41680240908597],[2.1952186874717547,41.42239134712698],[2.195487355618295,41.42234372478756],[2.195604468879315,41.422650446159345],[2.195890217667746,41.4244240556904],[2.1965479629194915,41.426587194113736],[2.1964253054246385,41.42666165238962],[2.197214596264325,41.42874839673625],[2.197571177549548,41.42920964577958],[2.198399356512248,41.42982143179223],[2.1989430118295923,41.43003221886283],[2.2006855058221886,41.43015945402399],[2.2029839133107663,41.42947863759603],[2.2070241803873274,41.4275836245619],[2.2073519141318867,41.42797666447126],[2.207275306091382,41.42878742303473],[2.207138714932267,41.428854011565704],[2.207323794627728,41.429068159274834],[2.2069209363190914,41.42991292135905],[2.207007614558635,41.43001373941147],[2.2065402995012304,41.43024240429725],[2.2067967001530935,41.430537055203786],[2.2064830693444355,41.43108071162809],[2.206171206418482,41.43227122788258],[2.2064707734435953,41.43264071753954],[2.2080414001484923,41.433130917078394],[2.2107591880150768,41.43343029359591],[2.2096270507106666,41.435759319918],[2.207990733149974,41.44109618745499],[2.207322238575832,41.442372857723036],[2.2062980296498087,41.443807647389626],[2.203210771743155,41.44710332489265],[2.199181320445846,41.45106709414286],[2.1977126376570384,41.45227590646863],[2.19131131805319,41.456851165147135],[2.1897866171310856,41.458218983840545],[2.1890144681969606,41.45903871108651],[2.1883284958189475,41.4600450169777],[2.1878731719471043,41.46107903266133],[2.1876413363157865,41.46211959156455]]]}},{"type":"Feature","properties":{"nivell":"ADM_02_PL","nom":"Sant Martí","districte":"10","codi_ua":"10"},"geometry":{"type":"Polygon","coordinates":[[[2.2073641222993587,41.42711129750025],[2.2068384551706357,41.42736088866829],[2.2070241803873274,41.4275836245619],[2.2029839133107663,41.42947863759603],[2.201527250547017,41.42999278857137],[2.1999005399687817,41.430161960051066],[2.198399356512248,41.42982143179223],[2.1973195439805506,41.42893676600292],[2.196622636645264,41.42728017826984],[2.1964253054246385,41.42666165238962],[2.1965479629194915,41.426587194113736],[2.195890217667746,41.4244240556904],[2.195604468879315,41.422650446159345],[2.195487355618295,41.42234372478756],[2.1952186874717547,41.42239134712698],[2.19324703172947,41.41664014963106],[2.193289876420394,41.41605639923922],[2.1935434622785577,41.41539701678922],[2.1933575689617646,41.41525228039121],[2.192414384648834,41.41454537578438],[2.1911089997889124,41.41554270864463],[2.1909774872015455,41.41516837282671],[2.1890339843154702,41.413677502005974],[2.183360972634387,41.41795044696965],[2.1754677901267323,41.41203643850192],[2.1856693102207543,41.4043058212446],[2.1845270221625235,41.40345150693427],[2.1868954737678394,41.40165635452926],[2.1868654893368564,41.39496837141036],[2.1866637066190417,41.394830622972286],[2.1867316946462396,41.39463945268453],[2.182380953884802,41.39142013297261],[2.1845856357603193,41.389755531612366],[2.186769724698571,41.39139260184995],[2.1935727210057716,41.38623950551963],[2.1957545450494536,41.38785245394036],[2.1959494057344364,41.38753827071754],[2.1964196739090056,41.38746570540119],[2.19972219744978,41.38498742444035],[2.1999861022327103,41.3851923981303],[2.1997622074112946,41.3853241615821],[2.1998366521138895,41.385383291238014],[2.1995884193026063,41.38570116064285],[2.1994221298381285,41.38557979841652],[2.1992879083348718,41.385679559563776],[2.1994890112474095,41.385832357230555],[2.198313281405165,41.386718429260895],[2.198430236446138,41.386808499566776],[2.198312473018876,41.38689523222604],[2.200220732436981,41.38833241128426],[2.200457477288061,41.38833286759542],[2.2019635077670645,41.387197584246735],[2.2001965486732282,41.38586811014175],[2.200835745496363,41.385385244397725],[2.2011248787476108,41.385599559444884],[2.200985383364732,41.38570436620416],[2.2011741537738185,41.38563873296722],[2.2014092008296733,41.385815263558925],[2.201203831099696,41.3859726046204],[2.2023972401280703,41.38687140636803],[2.202603357047955,41.38671546274249],[2.202515189482165,41.386648230286085],[2.2027452718305542,41.38660809284954],[2.2017962204275006,41.38550643280151],[2.2007495717215573,41.38458151711196],[2.2000337577371356,41.38410583667117],[2.1998959703337646,41.38415143855175],[2.1988597637971363,41.38366103810055],[2.1994028492050575,41.38336266959184],[2.199776455101471,41.383352468722194],[2.200543803027859,41.383734668470716],[2.2006694426991746,41.383857620299715],[2.2005286545818246,41.383984242793765],[2.1997790529595282,41.38359905877527],[2.1995016044903677,41.38359059849313],[2.2006256232380417,41.38415825727868],[2.2018621080286978,41.38517302601557],[2.202783868881094,41.38617329699516],[2.203620655175951,41.38741658076773],[2.203054550312276,41.387839793350935],[2.2033898790166457,41.38815907645361],[2.2028330758287487,41.387653618557415],[2.2014917633695634,41.38865399336674],[2.2020748877310976,41.389795395198796],[2.2029959640131174,41.3904978346123],[2.204420771267159,41.391080644957206],[2.204746852070966,41.39111146824785],[2.2057591937166854,41.39039198012078],[2.205890540290086,41.3904911046371],[2.204567393037692,41.391493057945354],[2.2048225214779404,41.39168338196558],[2.206142048865497,41.39067871023609],[2.206270969505571,41.39077480006057],[2.205729232969947,41.39118483999273],[2.205509854032448,41.39154813876571],[2.2070300138317207,41.393618238045086],[2.2082025727094967,41.394794929407226],[2.2089036197060747,41.395247118524004],[2.21006507837618,41.39564577731454],[2.211317653447973,41.39474173257138],[2.211448315034719,41.39483857611529],[2.2109115694343724,41.39524527853644],[2.2111272481200013,41.39540719021567],[2.2117178688912236,41.395038228070824],[2.211848769369906,41.39513420807304],[2.2107353004666788,41.39602698153247],[2.2111123510735506,41.39677668877099],[2.212118561843056,41.39795402771068],[2.2136356365267216,41.399138597407784],[2.214398893379491,41.39935212786633],[2.2151499233702423,41.39874386922422],[2.2155877600181797,41.39859527668074],[2.2153370415454656,41.398856361125794],[2.215673431645037,41.398796638016556],[2.2156393535072736,41.39898439235139],[2.214561964847634,41.39974396869021],[2.2152950020341606,41.40104937458029],[2.216147893747117,41.401950506841104],[2.2173407831459366,41.40259281854021],[2.2189432421621476,41.40150906220054],[2.2171511954023515,41.40293978571745],[2.2175648771540226,41.40352924007905],[2.218493954561245,41.40438265562533],[2.2203072771453587,41.40515302097696],[2.222153028627055,41.403876224906526],[2.2219503041937125,41.403547413567566],[2.2221519451830716,41.40352468188292],[2.2224620287736476,41.403804962725914],[2.223387127360376,41.40528720017686],[2.2228614602750247,41.40497997201704],[2.2221746213745437,41.404077588513424],[2.2209714535791067,41.405140237245426],[2.2215209492876284,41.405533607301834],[2.2218174116811564,41.40531533536604],[2.2217658888035805,41.40511235421657],[2.2219233084630767,41.405075254118124],[2.2222691512898702,41.40534307846841],[2.2226800187646134,41.405393442532635],[2.2234333322862097,41.40617938396695],[2.223935316260051,41.406320266830924],[2.2243276813456094,41.40616695691432],[2.224686070838305,41.40647021388853],[2.2251108618202995,41.40632007155989],[2.2255001901027183,41.405955297899744],[2.225717290586948,41.40596718078199],[2.2258064229761403,41.40612332203732],[2.2256914230601477,41.4063290630462],[2.224778884040018,41.406937052862034],[2.225024054609891,41.40733552431623],[2.225655384449082,41.406733374196016],[2.2260947599428724,41.4066219802651],[2.2262076690493355,41.406818265399586],[2.2260360580466965,41.40694106327594],[2.2261097251499207,41.407254290046275],[2.226228142499882,41.40735941940818],[2.2264752904129295,41.407095991569925],[2.226487105471301,41.407691592552645],[2.226741036288344,41.407876160595805],[2.2268065647921778,41.407628930899016],[2.226926341793731,41.40762769106017],[2.227021303457914,41.40788901499494],[2.2269166958514077,41.40811438225687],[2.2274250302760694,41.408093773773174],[2.2280175141818175,41.40904303312678],[2.2279391812521223,41.40954336014121],[2.2277118299499254,41.40961404736327],[2.227243768198526,41.40894813328943],[2.226980120886801,41.40841095680184],[2.2270525686983893,41.40827531417763],[2.226440746021723,41.40776706092413],[2.226275113653047,41.40742973703967],[2.2258360345725787,41.40708779179283],[2.2254265556568313,41.407319924294896],[2.2258284981643803,41.40794336303504],[2.2258375435358717,41.40776091404468],[2.226079086429602,41.40788829267439],[2.225897158146142,41.40804543855063],[2.2262578816990333,41.40851344432151],[2.2261163263856587,41.408536983651196],[2.2263568981029067,41.40890383737691],[2.226411058512553,41.408647902333925],[2.2262566609790966,41.40843784522543],[2.2263885539915247,41.40839773001854],[2.2265331094674257,41.40857715836268],[2.2264173540905885,41.40889582186963],[2.226792314502701,41.40936158869497],[2.226746893528155,41.40965680664869],[2.227213481265915,41.41037752875024],[2.223250693579251,41.41198748797438],[2.2227945499563204,41.41231689460326],[2.2209755844201258,41.413078083550346],[2.2213682692804007,41.41351379461642],[2.220442767398682,41.41416662393745],[2.2181936245399765,41.41729369488889],[2.2177919885705686,41.41698908291044],[2.216093193298621,41.41826666882823],[2.2163211137054404,41.418437386466316],[2.214021126692307,41.42017264514392],[2.213786845115771,41.41999972854454],[2.2112789046361914,41.421670976935914],[2.2118150717103653,41.42207226813143],[2.2113225685711253,41.42256529724868],[2.2109494396843425,41.42346912053842],[2.2095991609076258,41.42434387950507],[2.209087244133145,41.42534473320392],[2.2086585023104535,41.42502270814502],[2.208434686558649,41.42517576981519],[2.207539630150952,41.42500187010157],[2.206766017232295,41.42542241244007],[2.206067071838676,41.4256125099141],[2.206761114130684,41.42675235279707],[2.206976022580037,41.42664970634873],[2.2073641222993587,41.42711129750025]]]}}]}